,IDORDRE,Wilaya,Moughataa,Commune,LON,LAT,Type,Milieu,School Code,Name of the school,Locality Code,Classrooms,Divisions,Students,Teachers,Water,Electricity,Latrines,Tower_Distance,Type of Service,Tower Details,Tower_Latitude,Tower_Longitude
2341,15,13-Nouakchott,DAR NAIM,DAR NAIM,18.11649,-15.936320000000002,public,Urbain,0.0,ABDEL WEDOUD,13801001.0,10.0,6.0,353.0,11.0,1.0,0.0,0.0,0.14,3G,MC3G0050,18.11753,-15.93706
2342,46,13-Nouakchott,DAR NAIM,DAR NAIM,18.093020000000003,-15.93286,public,Urbain,0.0,ABOU BECRINE O/ VETENE,13801001.0,15.0,6.0,502.0,16.0,0.0,0.0,2.0,0.3,3G,MC3G0228,18.09139,-15.93513
2343,39,13-Nouakchott,DAR NAIM,DAR NAIM,18.088079999999998,-15.943029999999998,prive,Urbain,0.0,BAREIM TEJDID,13801001.0,8.0,6.0,126.0,9.0,1.0,1.0,2.0,0.12,3G,MR3G0059,18.08802778,-15.94188889
2344,25,13-Nouakchott,DAR NAIM,DAR NAIM,18.10899,-15.91951,public,Urbain,0.0,CHEIKH O/ ABDOUKE,13801001.0,12.0,6.0,364.0,13.0,1.0,0.0,12.0,0.27,3G,MC3G0183,18.10758333,-15.91738889
2345,53,13-Nouakchott,DAR NAIM,DAR NAIM,18.08715,-15.940729999999999,Prive,Urbain,0.0,CHEMS DINE,13801001.0,17.0,10.0,435.0,23.0,1.0,1.0,10.0,0.16,3G,MR3G0059,18.08802778,-15.94188889
2346,48,13-Nouakchott,DAR NAIM,DAR NAIM,18.12709,-15.912479999999999,Public,Urbain,1302505.0,COLLEGE DAR NAIM,13801001.0,8.0,7.0,200.0,15.0,1.0,1.0,4.0,0.75,3G,MR3G0154,18.1338,-15.9119
2347,62,13-Nouakchott,DAR NAIM,DAR NAIM,18.07495,-15.941510000000001,Public,Urbain,1302502.0,COLLEGE DAR NAIM 1,13801001.0,15.0,7.0,375.0,30.0,1.0,1.0,4.0,0.38,3G,MC3G0167,18.07216,-15.939370000000002
2348,54,13-Nouakchott,DAR NAIM,DAR NAIM,18.10247,-15.92805,Public,Urbain,0.0,COLLEGE DAR NAIM 2,13801001.0,14.0,7.0,350.0,30.0,0.0,0.0,6.0,0.05,3G,MA3G0003,18.1029,-15.9283
2349,46,13-Nouakchott,DAR NAIM,DAR NAIM,18.1185,-15.928529999999999,Public,Urbain,1302504.0,COLLEGE DAR NAIM 3,13801001.0,8.0,7.0,200.0,17.0,0.0,0.0,10.0,0.28,3G,MR3G0052,18.12099,-15.929148999999999
2350,49,13-Nouakchott,DAR NAIM,DAR NAIM,18.12461,-15.92965,Public,Urbain,1302506.0,COLLEGE DAR NAIM 5,13801001.0,12.0,7.0,300.0,14.0,0.0,1.0,8.0,0.41,3G,MR3G0052,18.12099,-15.929148999999999
2351,29,13-Nouakchott,DAR NAIM,DAR NAIM,18.1128,-15.919579999999998,prive,Urbain,0.0,DAR EL ILM,13801001.0,5.0,6.0,177.0,6.0,1.0,1.0,2.0,0.43,3G,MC3G0174,18.11628,-15.921370000000001
2352,41,13-Nouakchott,DAR NAIM,DAR NAIM,18.102999999999998,-15.9283,prive,Urbain,0.0,EBOU HAMED EL GHAZALI,13801001.0,5.0,6.0,320.0,6.0,1.0,1.0,6.0,0.01,3G,MA3G0003,18.1029,-15.9283
2353,20,13-Nouakchott,DAR NAIM,DAR NAIM,18.109070000000003,-15.9242,prive,Urbain,0.0,EBOU HAMED EL GHAZALI,13801001.0,6.0,6.0,252.0,7.0,1.0,1.0,0.0,0.06,3G,MR3G0055,18.10961,-15.92438
2354,58,13-Nouakchott,DAR NAIM,DAR NAIM,18.082279999999997,-15.94275,Prive,Urbain,2896.0,ECOLE PRIVEE EL ASSALA,13801001.0,7.0,6.0,175.0,12.0,1.0,1.0,4.0,0.07,2G,MC2G0185,18.0826,-15.9433
2355,52,13-Nouakchott,DAR NAIM,DAR NAIM,18.09724,-15.9304,Prive,Urbain,729.0,ECOLE PRIVEE NAIM,13801001.0,4.0,4.0,100.0,8.0,1.0,0.0,1.0,0.48,3G,MC3G0188,18.09652,-15.9259
2356,55,13-Nouakchott,DAR NAIM,DAR NAIM,18.08352,-15.936860000000001,public,Urbain,0.0,ECOLE ZAHRA,13801001.0,15.0,6.0,437.0,16.0,1.0,0.0,2.0,0.25,3G,MA3G0031,18.085783,-15.9366
2357,57,13-Nouakchott,DAR NAIM,DAR NAIM,18.0832,-15.94616,public,Urbain,0.0,ECOLE ZEID,13801001.0,15.0,6.0,412.0,16.0,1.0,0.0,2.0,0.28,3G,MC3G0226,18.08249,-15.943660000000001
2358,52,13-Nouakchott,DAR NAIM,DAR NAIM,18.082279999999997,-15.94275,prive,Urbain,0.0,EL ASSALA,13801001.0,5.0,6.0,184.0,6.0,1.0,1.0,3.0,0.07,2G,MC2G0185,18.0826,-15.9433
2359,12,13-Nouakchott,DAR NAIM,DAR NAIM,18.10254,-15.92515,prive,Urbain,0.0,EL GHOUDWA,13801001.0,4.0,5.0,67.0,5.0,1.0,1.0,1.0,0.2,3G,MC3G0186,18.10431,-15.92464
2360,65,13-Nouakchott,DAR NAIM,DAR NAIM,18.106479999999998,-15.92036,Prive,Urbain,17.0,EL IHYAA,13801001.0,3.0,3.0,75.0,7.0,1.0,1.0,2.0,0.34,3G,MC3G0183,18.10758333,-15.91738889
2361,44,13-Nouakchott,DAR NAIM,DAR NAIM,18.07299,-15.93786,prive,Urbain,0.0,EL ILM WAL HOUDA,13801001.0,6.0,6.0,125.0,7.0,1.0,1.0,2.0,0.08,3G,MA3G0160,18.073087,-15.93714
2362,35,13-Nouakchott,DAR NAIM,DAR NAIM,18.0856,-15.936760000000001,prive,Urbain,0.0,EL MENAB,13801001.0,7.0,6.0,163.0,8.0,1.0,1.0,8.0,0.03,3G,MA3G0031,18.085783,-15.9366
2363,51,13-Nouakchott,DAR NAIM,DAR NAIM,18.073629999999998,-15.941410000000001,prive,Urbain,0.0,EL MENHEL,13801001.0,11.0,6.0,194.0,12.0,1.0,1.0,2.0,0.27,3G,MC3G0167,18.07216,-15.939370000000002
2364,60,13-Nouakchott,DAR NAIM,DAR NAIM,18.07628,-15.948570000000002,Prive,Urbain,381.0,EL OULA,13801001.0,3.0,3.0,75.0,7.0,1.0,1.0,2.0,0.16,3G,MC3G0221,18.07726,-15.9497
2365,45,13-Nouakchott,DAR NAIM,DAR NAIM,18.07656,-15.94854,prive,Urbain,0.0,EL OULA,13801001.0,11.0,6.0,6.0,12.0,1.0,1.0,2.0,0.15,3G,MC3G0221,18.07726,-15.9497
2366,22,13-Nouakchott,DAR NAIM,DAR NAIM,18.097820000000002,-15.92141,public,Urbain,0.0,ELY O/ MEYARA,13801001.0,9.0,6.0,278.0,10.0,0.0,0.0,9.0,0.25,3G,MA3G0136,18.095660000000002,-15.92084
2367,32,13-Nouakchott,DAR NAIM,DAR NAIM,18.097160000000002,-15.930629999999999,prive,Urbain,0.0,ENAIM,13801001.0,7.0,6.0,405.0,8.0,1.0,0.0,8.0,0.5,3G,MC3G0188,18.09652,-15.9259
2368,59,13-Nouakchott,DAR NAIM,DAR NAIM,18.07583,-15.94271,prive,Urbain,0.0,ES SEBIL,13801001.0,8.0,6.0,244.0,9.0,1.0,1.0,2.0,0.3,3G,MR3G0054,18.077897,-15.944514999999999
2369,63,13-Nouakchott,DAR NAIM,DAR NAIM,18.07631,-15.9426,Prive,Urbain,886.0,ESSEBIL,13801001.0,7.0,7.0,175.0,16.0,1.0,1.0,5.0,0.27,3G,MR3G0054,18.077897,-15.944514999999999
2370,4,13-Nouakchott,DAR NAIM,DAR NAIM,18.12268,-15.925670000000002,prive,Urbain,0.0,EVEIL,13801001.0,8.0,6.0,135.0,9.0,1.0,1.0,2.0,0.22,3G,MA3G0157,18.123279999999998,-15.923689999999999
2371,50,13-Nouakchott,DAR NAIM,DAR NAIM,18.09741,-15.92605,Prive,Urbain,380.0,GHASR EL BARAKA,13801001.0,5.0,4.0,125.0,9.0,1.0,1.0,5.0,0.1,3G,MC3G0188,18.09652,-15.9259
2372,24,13-Nouakchott,DAR NAIM,DAR NAIM,18.09741,-15.92605,prive,Urbain,0.0,GHASSER EL BARAKA,13801001.0,5.0,6.0,219.0,6.0,1.0,1.0,2.0,0.1,3G,MC3G0188,18.09652,-15.9259
2373,26,13-Nouakchott,DAR NAIM,DAR NAIM,18.09832,-15.9213,prive,Urbain,0.0,GROUPE PRIVEE LES PETITS GENIES,13801001.0,3.0,4.0,70.0,4.0,1.0,0.0,2.0,0.3,3G,MA3G0136,18.095660000000002,-15.92084
2374,56,13-Nouakchott,DAR NAIM,DAR NAIM,18.10296,-15.92801,Prive,Urbain,261.0,HAMED EL GHAZALY,13801001.0,7.0,7.0,175.0,15.0,1.0,1.0,4.0,0.03,3G,MA3G0003,18.1029,-15.9283
2375,19,13-Nouakchott,DAR NAIM,DAR NAIM,18.106479999999998,-15.92036,prive,Urbain,0.0,IHYAA,13801001.0,4.0,5.0,109.0,5.0,1.0,1.0,0.0,0.34,3G,MC3G0183,18.10758333,-15.91738889
2376,61,13-Nouakchott,DAR NAIM,DAR NAIM,18.085620000000002,-15.94198,Prive,Urbain,181712006.0,KANAN,13801001.0,3.0,3.0,75.0,6.0,1.0,1.0,1.0,0.27,3G,MR3G0059,18.08802778,-15.94188889
2377,2,13-Nouakchott,DAR NAIM,DAR NAIM,18.10785,-15.930010000000001,public,Urbain,0.0,KHADIJETOU BINT KHOUWEILID,13801001.0,17.0,6.0,580.0,18.0,1.0,0.0,1.0,0.42,3G,MR3G0141,18.1041,-15.9302
2378,53,13-Nouakchott,DAR NAIM,DAR NAIM,18.085620000000002,-15.94198,prive,Urbain,0.0,KINANE,13801001.0,7.0,6.0,133.0,8.0,1.0,1.0,2.0,0.27,3G,MR3G0059,18.08802778,-15.94188889
2379,51,13-Nouakchott,DAR NAIM,DAR NAIM,18.09916,-15.9282,Prive,Urbain,171.0,LES INGENIEURS,13801001.0,3.0,3.0,75.0,6.0,1.0,1.0,1.0,0.38,3G,MC3G0188,18.09652,-15.9259
2380,47,13-Nouakchott,DAR NAIM,DAR NAIM,18.09169,-15.940760000000001,public,Urbain,0.0,LIMAM ABDOUL AZIZ,13801001.0,9.0,6.0,455.0,10.0,1.0,0.0,16.0,0.26,3G,MC3G0227,18.09373056,-15.94190278
2381,64,13-Nouakchott,DAR NAIM,DAR NAIM,18.1046,-15.92216,Public,Urbain,0.0,LYCEE DAR NAIM,13801001.0,25.0,7.0,625.0,50.0,1.0,1.0,0.0,0.26,3G,MC3G0186,18.10431,-15.92464
2382,37,13-Nouakchott,DAR NAIM,DAR NAIM,18.08193,-15.93405,prive,Urbain,0.0,MENAHIL-ILM,13801001.0,6.0,6.0,120.0,7.0,1.0,0.0,1.0,0.12,3G,MC3G0219,18.081194,-15.93489
2383,55,13-Nouakchott,DAR NAIM,DAR NAIM,18.100929999999998,-15.92719,Prive,Urbain,0.0,OUM EL GHOURA,13801001.0,7.0,5.0,175.0,11.0,1.0,1.0,2.0,0.25,3G,MA3G0003,18.1029,-15.9283
2384,23,13-Nouakchott,DAR NAIM,DAR NAIM,18.10653,-15.922620000000002,public,Urbain,0.0,OUMAR BEN ABDEL AZIZ,13801001.0,11.0,6.0,411.0,12.0,1.0,0.0,12.0,0.33,3G,MC3G0186,18.10431,-15.92464
2385,33,13-Nouakchott,DAR NAIM,DAR NAIM,18.09587,-15.93356,prive,Urbain,0.0,OUSMANE O/ BACAR,13801001.0,4.0,5.0,80.0,5.0,1.0,1.0,0.0,0.33,3G,MA3G0146,18.09822,-15.935532
2386,45,13-Nouakchott,DAR NAIM,DAR NAIM,18.117060000000002,-15.92345,Prive,Urbain,4763.0,SEBOU TIWAL,13801001.0,6.0,4.0,150.0,8.0,1.0,1.0,0.0,0.2,3G,MA3G0034,18.1153,-15.924000000000001
2387,21,13-Nouakchott,DAR NAIM,DAR NAIM,18.102999999999998,-15.92425,public,Urbain,0.0,SIDIGH,13801001.0,19.0,6.0,704.0,20.0,1.0,1.0,12.0,0.15,3G,MC3G0186,18.10431,-15.92464
2388,57,13-Nouakchott,DAR NAIM,DAR NAIM,18.0908,-15.93909,Prive,Urbain,802.0,TEJDID EL ISLAH,13801001.0,6.0,9.0,31.0,12.0,1.0,1.0,1.0,0.37,3G,MR3G0056,18.09147,-15.93568
2389,60,13-Nouakchott,DAR NAIM,DAR NAIM,18.07558,-15.942479999999998,public,Urbain,0.0,TENSIWEILIM1,13801001.0,15.0,6.0,434.0,16.0,0.0,1.0,8.0,0.34,3G,MR3G0054,18.077897,-15.944514999999999
2390,59,13-Nouakchott,DAR NAIM,DAR NAIM,18.07665,-15.94961,Prive,Urbain,609.0,TENWIR WEL INFITAH,13801001.0,7.0,6.0,175.0,13.0,1.0,1.0,1.0,0.07,3G,MC3G0221,18.07726,-15.9497
2402,236,13-Nouakchott,Riyad,Riyad,17.99504,-15.97085,Prive,Urbain,0.0,ABOU HOURAIRA,13901001.0,4.0,6.0,100.0,13.0,0.0,0.0,1.0,0.45,3G,MA3G0162,17.99555,-15.97507
2403,231,13-Nouakchott,Riyad,Riyad,18.0019,-15.97609,Prive,Urbain,0.0,AL IBDHA,13901001.0,2.0,2.0,50.0,5.0,1.0,1.0,2.0,0.38,3G,MC3G0208,17.998910000000002,-15.974429999999998
2404,233,13-Nouakchott,Riyad,Riyad,17.97515,-15.970189999999999,Prive,Urbain,0.0,AVENIR PK 12,13901001.0,2.0,2.0,50.0,5.0,1.0,1.0,1.0,0.46,3G,MC3G0207,17.979222,-15.969194
2405,237,13-Nouakchott,Riyad,Riyad,17.99512,-15.97323,Prive,Urbain,0.0,CHEIKH YACOUB,13901001.0,3.0,4.0,75.0,9.0,1.0,1.0,1.0,0.2,3G,MA3G0162,17.99555,-15.97507
2406,240,13-Nouakchott,Riyad,Riyad,18.01482,-15.970620000000002,Prive,Urbain,0.0,COLLEGE RIAD 2,13901001.0,16.0,7.0,400.0,33.0,0.0,0.0,0.0,0.4,3G,MC3G0209,18.01122,-15.97105
2407,230,13-Nouakchott,Riyad,Riyad,17.99596,-15.96185,Prive,Urbain,0.0,COLLEGE RIAD 3,13901001.0,12.0,7.0,300.0,18.0,1.0,0.0,10.0,0.39,3G,MC3G0196,17.99247222,-15.96158333
2408,225,13-Nouakchott,Riyad,Riyad,18.009,-15.95865,Prive,Urbain,0.0,COLLEGE RIAD 4,13901001.0,8.0,7.0,200.0,18.0,0.0,0.0,5.0,0.34,3G,MR3G0085,18.00633,-15.96016
2409,227,13-Nouakchott,Riyad,Riyad,18.015220000000003,-15.95546,Prive,Urbain,0.0,COLLEGE RIAD 6,13901001.0,12.0,4.0,300.0,8.0,1.0,1.0,9.0,0.44,3G,MR3G0083,18.017367999999998,-15.958956
2410,228,13-Nouakchott,Riyad,Riyad,18.0089,-15.9723,Prive,Urbain,0.0,DAR EL FIKR RYADH,13901001.0,14.0,11.0,460.0,18.0,1.0,1.0,4.0,0.29,3G,MC3G0209,18.01122,-15.97105
2411,235,13-Nouakchott,Riyad,Riyad,17.99325,-15.96902,Prive,Urbain,0.0,EL MECHEHIL EL JEDID,13901001.0,6.0,7.0,158.0,19.0,1.0,1.0,2.0,0.52,3G,MC3G0212,17.99033056,-15.97286111
2412,243,13-Nouakchott,Riyad,Riyad,18.01981,-15.97419,Prive,Urbain,0.0,EL MEDINA,13901001.0,2.0,4.0,66.0,8.0,1.0,1.0,1.0,0.2,3G,MR3G0082,18.0195,-15.97229
2413,226,13-Nouakchott,Riyad,Riyad,17.99401,-15.966660000000001,Prive,Urbain,0.0,FANSOURY,13901001.0,3.0,2.0,75.0,5.0,1.0,1.0,1.0,0.56,3G,MC3G0196,17.99247222,-15.96158333
2414,232,13-Nouakchott,Riyad,Riyad,17.97741,-15.971420000000002,Prive,Urbain,0.0,JAAVAR ESSADEGH,13901001.0,10.0,8.0,202.0,15.0,1.0,1.0,2.0,0.31,3G,MC3G0207,17.979222,-15.969194
2415,238,13-Nouakchott,Riyad,Riyad,18.00321,-15.97326,Prive,Urbain,0.0,LYCEE DE RIYAD,13901001.0,11.0,7.0,275.0,33.0,1.0,1.0,11.0,0.28,3G,MR3G0081,18.0057,-15.9734
2416,223,13-Nouakchott,Riyad,Riyad,18.00144,-15.97383,Prive,Urbain,0.0,MANAHEL ILM II GANDOL,13901001.0,6.0,7.0,150.0,17.0,1.0,1.0,2.0,0.29,3G,MC3G0208,17.998910000000002,-15.974429999999998
2417,224,13-Nouakchott,Riyad,Riyad,18.017229999999998,-15.958420000000002,Prive,Urbain,399.0,MEKETALMOUKARAM,13901001.0,1.0,3.0,25.0,7.0,1.0,1.0,2.0,0.06,3G,MR3G0083,18.017367999999998,-15.958956
2418,241,13-Nouakchott,Riyad,Riyad,18.01351,-15.97613,Prive,Urbain,342.0,MENAH-ILM,13901001.0,6.0,7.0,158.0,19.0,1.0,1.0,4.0,0.14,3G,MC3G0213,18.01275,-15.97506944
2419,239,13-Nouakchott,Riyad,Riyad,18.00573,-15.973720000000002,Prive,Urbain,0.0,NOUR EL ILME,13901001.0,7.0,6.0,175.0,12.0,1.0,1.0,1.0,0.03,3G,MR3G0081,18.0057,-15.9734
2420,234,13-Nouakchott,Riyad,Riyad,17.988979999999998,-15.966170000000002,Prive,Urbain,0.0,RIYAD I,13901001.0,14.0,7.0,350.0,17.0,0.0,1.0,0.0,0.37,3G,MC3G0210,17.98631,-15.96822
2421,244,13-Nouakchott,Riyad,Riyad,18.02815,-15.973410000000001,Prive,Urbain,0.0,SCIENCE ET SAVOIR,13901001.0,4.0,4.0,100.0,9.0,1.0,1.0,4.0,0.32,3G,MC3G0211,18.02602778,-15.971325
2423,112,13-Nouakchott,Tevragh Zeina,Tevragh Zeina,18.1016,-15.99709444,Prive,Urbain,0.0,BOURGE SA,13401001.0,12.0,7.0,300.0,27.0,1.0,1.0,10.0,0.13,3G,MA3G0019,18.1018,-15.9959
2424,4,13-Nouakchott,Tevragh Zeina,Tevragh Zeina,18.08015,-15.980129999999999,public,Urbain,0.0,CAPITAL 5,13401001.0,16.0,6.0,528.0,17.0,1.0,1.0,2.0,0.09,3G,MR3G0115,18.0794,-15.9805
2425,116,13-Nouakchott,Tevragh Zeina,Tevragh Zeina,18.089010000000002,-16.00379,Prive,Urbain,1769.0,CHEIKH MOUSSA,13401001.0,10.0,7.0,258.0,31.0,1.0,1.0,11.0,0.55,3G,MR3G0097,18.092708,-16.007292
2426,109,13-Nouakchott,Tevragh Zeina,Tevragh Zeina,18.112170000000003,-15.99172,Prive,Urbain,132.0,CHEMIS DINE,13401001.0,12.0,7.0,300.0,19.0,1.0,1.0,5.0,0.14,3G,MC3G0077,18.11094444,-15.99183333
2427,97,13-Nouakchott,Tevragh Zeina,Tevragh Zeina,18.101960000000002,-15.9924,Prive,Urbain,1307504.0,COLLEGE TZ2,13401001.0,6.0,6.0,150.0,13.0,1.0,1.0,6.0,0.15,3G,MC3G0078,18.10061111,-15.99230556
2428,87,13-Nouakchott,Tevragh Zeina,Tevragh Zeina,18.08275,-15.974739999999999,Prive,Urbain,0.0,COMPLEXE DES ECOLES PRIVEE EL KHIYAR,13401001.0,18.0,7.0,450.0,50.0,1.0,1.0,6.0,0.1,3G,MA3G0008,18.0836,-15.9746
2429,9,13-Nouakchott,Tevragh Zeina,Tevragh Zeina,18.0814,-15.98325556,prive,Urbain,0.0,COMPLEXE SCOLAIRE TINKORO KAMARA,13401001.0,8.0,6.0,233.0,9.0,1.0,1.0,2.0,0.21,3G,MC3G0087,18.0823,-15.985
2430,90,13-Nouakchott,Tevragh Zeina,Tevragh Zeina,18.0814,-15.98325556,Prive,Urbain,0.0,COMPLEXE SCOLAIRE TIOKORO KAMARA,13401001.0,7.0,7.0,175.0,16.0,1.0,1.0,3.0,0.21,3G,MC3G0087,18.0823,-15.985
2431,10,13-Nouakchott,Tevragh Zeina,Tevragh Zeina,18.111163,-15.975857999999999,prive,Urbain,0.0,COMPLEXES DES ECOLES EDHIYA,13401001.0,11.0,6.0,166.0,12.0,1.0,0.0,8.0,0.41,3G,MA3G0054,18.11471167,-15.9747
2432,12,13-Nouakchott,Tevragh Zeina,Tevragh Zeina,18.10973,-15.998729999999998,prive,Urbain,0.0,DIAMLY,13401001.0,2.0,3.0,37.0,3.0,1.0,1.0,1.0,0.29,3G,MC3G0075,18.11236111,-15.99869444
2433,13,13-Nouakchott,Tevragh Zeina,Tevragh Zeina,18.083920000000003,-15.9783,public,Urbain,0.0,ECOLE 7,13401001.0,19.0,6.0,351.0,20.0,1.0,1.0,0.0,0.14,3G,MC3G0083,18.08264167,-15.97836389
2434,84,13-Nouakchott,Tevragh Zeina,Tevragh Zeina,18.082810000000002,-15.98531,Prive,Urbain,0.0,ECOLE AL FALAH,13401001.0,5.0,6.0,125.0,13.0,1.0,0.0,4.0,0.07,3G,MC3G0087,18.0823,-15.985
2435,14,13-Nouakchott,Tevragh Zeina,Tevragh Zeina,18.091479999999997,-15.97819,public,Urbain,0.0,ECOLE CAPITALE 3,13401001.0,10.0,6.0,150.0,11.0,1.0,1.0,2.0,0.04,3G,MC3G0007,18.09183333,-15.97808333
2436,16,13-Nouakchott,Tevragh Zeina,Tevragh Zeina,18.08923,-15.986289999999999,public,Urbain,0.0,ECOLE ILOT K,13401001.0,8.0,6.0,179.0,9.0,0.0,0.0,8.0,0.19,3G,MR3G0102,18.0905,-15.985029999999998
2437,17,13-Nouakchott,Tevragh Zeina,Tevragh Zeina,18.11404,-15.98279,public,Urbain,0.0,ECOLE IMAM CHAFIH,13401001.0,10.0,6.0,91.0,11.0,1.0,0.0,0.0,0.23,3G,MR3G0118,18.11205,-15.982392
2438,20,13-Nouakchott,Tevragh Zeina,Tevragh Zeina,18.097939999999998,-15.976239999999999,prive,Urbain,0.0,ECOLE MOCKTAR OULD DADDAH,13401001.0,6.0,6.0,114.0,7.0,1.0,1.0,0.0,0.1,3G,MA3G0142,18.09705333,-15.97623167
2439,21,13-Nouakchott,Tevragh Zeina,Tevragh Zeina,18.095589999999998,-15.98075,prive,Urbain,0.0,ECOLE PRIMAIRE DU SAHEL,13401001.0,16.0,6.0,571.0,17.0,1.0,1.0,12.0,0.07,3G,MR3G0091,18.096195,-15.980879999999999
2440,86,13-Nouakchott,Tevragh Zeina,Tevragh Zeina,18.08176,-15.9743,Prive,Urbain,0.0,ECOLE PRIVE AVDAL,13401001.0,1.0,2.0,41.0,5.0,1.0,1.0,2.0,0.13,3G,MR3G0072,18.08107,-15.9753
2441,118,13-Nouakchott,Tevragh Zeina,Tevragh Zeina,18.104689999999998,-15.97952,Prive,Urbain,0.0,ECOLE PRIVEE EL KARAMA,13401001.0,4.0,5.0,100.0,10.0,1.0,1.0,1.0,0.2,3G,MR3G0119,18.106460000000002,-15.97923
2442,126,13-Nouakchott,Tevragh Zeina,Tevragh Zeina,18.09905,-15.98245,Prive,Urbain,0.0,ECOLE PRIVEE LIBIENNE,13401001.0,6.0,5.0,150.0,11.0,1.0,1.0,7.0,0.22,3G,MA3G0021,18.1001,-15.98065
2443,33,13-Nouakchott,Tevragh Zeina,Tevragh Zeina,18.082810000000002,-15.98531,prive,Urbain,0.0,ECOLE PRIVEES EL FELAH,13401001.0,11.0,6.0,141.0,12.0,1.0,1.0,0.0,0.07,3G,MC3G0087,18.0823,-15.985
2444,89,13-Nouakchott,Tevragh Zeina,Tevragh Zeina,18.116697,-15.961619,Prive,Urbain,0.0,ECOLE PRIVEES EL MOUHAMADIYA EL HADIZA,13401001.0,14.0,7.0,350.0,28.0,1.0,1.0,2.0,0.75,3G,MC3G0072,18.1122,-15.956370000000001
2445,35,13-Nouakchott,Tevragh Zeina,Tevragh Zeina,18.10115,-15.99185,public,Urbain,0.0,ECOLE PUBLIC IBN SINS,13401001.0,11.0,6.0,416.0,12.0,0.0,0.0,8.0,0.08,3G,MC3G0078,18.10061111,-15.99230556
2446,36,13-Nouakchott,Tevragh Zeina,Tevragh Zeina,18.10023,-15.97591,public,Urbain,0.0,ECOLE TEVRAGH ZEINA,13401001.0,15.0,6.0,449.0,16.0,1.0,1.0,2.0,0.11,3G,MR3G0112,18.100503,-15.974910000000001
2447,38,13-Nouakchott,Tevragh Zeina,Tevragh Zeina,18.082539999999998,-15.982070000000002,public,Urbain,0.0,ECOLES JUSTICE (CAPITAL 1),13401001.0,10.0,6.0,148.0,11.0,1.0,1.0,2.0,0.24,3G,MR3G0092,18.0847,-15.9819
2448,100,13-Nouakchott,Tevragh Zeina,Tevragh Zeina,18.10238,-15.99496,Prive,Urbain,42211.0,EL BOURHAN,13401001.0,6.0,7.0,150.0,18.0,1.0,1.0,4.0,0.12,3G,MA3G0019,18.1018,-15.9959
2449,101,13-Nouakchott,Tevragh Zeina,Tevragh Zeina,18.09895,-15.979770000000002,Prive,Urbain,0.0,EL KARAMA,13401001.0,9.0,7.0,225.0,21.0,1.0,1.0,2.0,0.12,3G,MC3G0038,18.09903,-15.978679999999999
2450,92,13-Nouakchott,Tevragh Zeina,Tevragh Zeina,18.11123,-15.98255,Prive,Urbain,0.0,EL MAINE,13401001.0,2.0,4.0,66.0,8.0,1.0,1.0,3.0,0.09,3G,MR3G0118,18.11205,-15.982392
2451,104,13-Nouakchott,Tevragh Zeina,Tevragh Zeina,18.10301,-15.98396,Prive,Urbain,1813.0,EL MOURAD,13401001.0,14.0,7.0,350.0,25.0,1.0,1.0,5.0,0.11,3G,MA3G0130,18.10265,-15.98497
2452,102,13-Nouakchott,Tevragh Zeina,Tevragh Zeina,18.10312,-15.98501,Prive,Urbain,0.0,EZZEMANE,13401001.0,7.0,7.0,175.0,15.0,1.0,1.0,2.0,0.05,3G,MA3G0130,18.10265,-15.98497
2453,47,13-Nouakchott,Tevragh Zeina,Tevragh Zeina,18.08116,-15.98274,prive,Urbain,0.0,GROUPE SCOLAIRE PRIVEE EDDALIL,13401001.0,5.0,6.0,79.0,6.0,0.0,1.0,16.0,0.27,3G,MC3G0087,18.0823,-15.985
2454,103,13-Nouakchott,Tevragh Zeina,Tevragh Zeina,18.1026,-15.97882,Prive,Urbain,1920.0,IBN BATOUTA,13401001.0,4.0,6.0,100.0,12.0,1.0,1.0,2.0,0.34,3G,MA3G0021,18.1001,-15.98065
2455,49,13-Nouakchott,Tevragh Zeina,Tevragh Zeina,18.090999999999998,-15.975629999999999,prive,Urbain,0.0,ISMAILA LALLA KANE,13401001.0,5.0,6.0,152.0,6.0,1.0,1.0,6.0,0.22,3G,MC3G0105,18.08906944,-15.97620278
2456,123,13-Nouakchott,Tevragh Zeina,Tevragh Zeina,18.09301,-15.98735,Prive,Urbain,0.0,LA FONTAINE,13401001.0,7.0,7.0,175.0,18.0,1.0,1.0,2.0,0.18,3G,MC3G0103,18.09291,-15.989020000000002
2457,50,13-Nouakchott,Tevragh Zeina,Tevragh Zeina,18.09271,-15.98714,prive,Urbain,0.0,LA FONTAINE,13401001.0,3.0,4.0,38.0,4.0,0.0,0.0,2.0,0.2,3G,MC3G0103,18.09291,-15.989020000000002
2458,88,13-Nouakchott,Tevragh Zeina,Tevragh Zeina,18.09321667,-15.98805556,Prive,Urbain,0.0,LE GROUPE SCOLAIRE PRIVEE PETIT CENTRE,13401001.0,26.0,7.0,650.0,58.0,1.0,1.0,7.0,0.11,3G,MC3G0103,18.09291,-15.989020000000002
2459,99,13-Nouakchott,Tevragh Zeina,Tevragh Zeina,18.09892,-15.97979,Prive,Urbain,616.0,LES ALOUETTES,13401001.0,2.0,2.0,50.0,4.0,1.0,1.0,0.0,0.12,3G,MC3G0038,18.09903,-15.978679999999999
2460,110,13-Nouakchott,Tevragh Zeina,Tevragh Zeina,18.11159,-15.993839999999999,Prive,Urbain,0.0,LES ECOLES PRIVEES IMAM EL GHAZALY,13401001.0,11.0,7.0,275.0,18.0,1.0,1.0,4.0,0.22,3G,MC3G0077,18.11094444,-15.99183333
2461,115,13-Nouakchott,Tevragh Zeina,Tevragh Zeina,18.10047,-15.995410000000001,Prive,Urbain,278.0,LES PETITS FUTES,13401001.0,10.0,5.0,250.0,10.0,1.0,1.0,4.0,0.1,3G,MR3G0096,18.09975167,-15.99589833
2462,85,13-Nouakchott,Tevragh Zeina,Tevragh Zeina,18.08513,-15.97665,Public,Urbain,1307501.0,LYCEE DES JEUNES FILLES,13401001.0,8.0,7.0,200.0,18.0,1.0,1.0,8.0,0.24,3G,MR3G0108,18.085923,-15.978713
2463,125,13-Nouakchott,Tevragh Zeina,Tevragh Zeina,18.092370000000003,-15.978079999999999,Prive,Urbain,0.0,LYCEE EL HADJ OMAR TALL,13401001.0,13.0,7.0,325.0,32.0,1.0,1.0,3.0,0.03,3G,MR3G0109,18.092505,-15.977795
2464,117,13-Nouakchott,Tevragh Zeina,Tevragh Zeina,18.09004,-15.9841,Prive,Urbain,0.0,LYCEE FRACAIS THEODORD MONOD,13401001.0,21.0,7.0,525.0,57.0,1.0,1.0,52.0,0.11,3G,MR3G0102,18.0905,-15.985029999999998
2465,127,13-Nouakchott,Tevragh Zeina,Tevragh Zeina,18.09413,-15.979220000000002,Prive,Urbain,0.0,LYCEE PRIVE DU SAHEL,13401001.0,13.0,7.0,325.0,78.0,1.0,1.0,4.0,0.24,3G,MR3G0109,18.092505,-15.977795
2466,108,13-Nouakchott,Tevragh Zeina,Tevragh Zeina,18.10618,-15.9783,Prive,Urbain,0.0,LYCEE PRIVEES EL IMAN WATAWA,13401001.0,7.0,6.0,175.0,13.0,1.0,1.0,3.0,0.1,3G,MR3G0119,18.106460000000002,-15.97923
2467,93,13-Nouakchott,Tevragh Zeina,Tevragh Zeina,18.100569,-15.9791,Public,Urbain,0.0,LYCEE TZ,13401001.0,6.0,7.0,158.0,19.0,1.0,1.0,2.0,0.17,3G,MA3G0021,18.1001,-15.98065
2468,60,13-Nouakchott,Tevragh Zeina,Tevragh Zeina,18.07939,-15.977129999999999,prive,Urbain,0.0,NASR AL ISLAM,13401001.0,1.0,2.0,47.0,2.0,1.0,1.0,8.0,0.17,3G,MC3G0066,18.07866,-15.97574
2469,105,13-Nouakchott,Tevragh Zeina,Tevragh Zeina,18.10632,-15.998129999999998,Prive,Urbain,2221.0,NENABI EL OULOUM,13401001.0,10.0,7.0,250.0,18.0,1.0,1.0,3.0,0.18,3G,MR3G0105,18.1051,-15.9993
2470,120,13-Nouakchott,Tevragh Zeina,Tevragh Zeina,18.10262,-15.97882,Prive,Urbain,0.0,NOUR ALMAARIFA,13401001.0,7.0,7.0,175.0,14.0,1.0,1.0,3.0,0.34,3G,MA3G0021,18.1001,-15.98065
2471,91,13-Nouakchott,Tevragh Zeina,Tevragh Zeina,18.08408,-15.9779,Prive,Urbain,0.0,RAHMA EL OURWA,13401001.0,9.0,7.0,233.0,28.0,1.0,1.0,5.0,0.17,3G,MC3G0083,18.08264167,-15.97836389
2472,94,13-Nouakchott,Tevragh Zeina,Tevragh Zeina,18.10529,-15.992339999999999,Prive,Urbain,1428.0,SAVOIR,13401001.0,7.0,7.0,191.0,23.0,1.0,1.0,0.0,0.25,3G,MA3G0159,18.107526,-15.992528
2473,63,13-Nouakchott,Tevragh Zeina,Tevragh Zeina,18.08014,-15.98357,public,Urbain,0.0,YAHDHIH OULD ABDEL WEDOUD,13401001.0,10.0,6.0,206.0,11.0,0.0,1.0,2.0,0.28,3G,MC3G0087,18.0823,-15.985
2492,53,13-Nouakchott,Arafat,Arafat,18.03678,-15.96015,prive,Urbain,0.0,TAIBA,13701001.0,7.0,6.0,131.0,8.0,1.0,0.0,2.0,0.2,3G,MC3G0193,18.03537,-15.961379999999998
2493,68,13-Nouakchott,Arafat,Arafat,18.03448,-15.959679999999999,public,Urbain,0.0,ABBE,13701001.0,17.0,6.0,604.0,18.0,1.0,0.0,8.0,0.21,3G,MC3G0193,18.03537,-15.961379999999998
2494,40,13-Nouakchott,Arafat,Arafat,18.05721,-15.96529,public,Urbain,0.0,ABDELLAHI BEN OUMAR,13701001.0,10.0,6.0,6.0,11.0,1.0,0.0,2.0,0.34,3G,MR3G0049,18.058188,-15.968339000000002
2495,32,13-Nouakchott,Arafat,Arafat,18.0587,-15.965879999999999,public,Urbain,0.0,ABOU DOUJANA,13701001.0,9.0,6.0,6.0,10.0,0.0,0.0,8.0,0.27,3G,MR3G0049,18.058188,-15.968339000000002
2496,21,13-Nouakchott,Arafat,Arafat,18.06429,-15.955210000000001,public,Urbain,0.0,ABOU HANIVA,13701001.0,9.0,6.0,307.0,10.0,0.0,0.0,12.0,0.42,3G,MC3G0206,18.0605,-15.95555
2497,94,13-Nouakchott,Arafat,Arafat,18.07784444,-15.96391667,prive,Urbain,0.0,ADWA EL ILM,13701001.0,5.0,6.0,103.0,6.0,1.0,1.0,6.0,0.06,3G,MR3G0042,18.0775556,-15.9644167
2498,69,13-Nouakchott,Arafat,Arafat,18.039070000000002,-15.958420000000002,prive,Urbain,0.0,AL MOURAD,13701001.0,9.0,6.0,327.0,10.0,1.0,1.0,2.0,0.16,3G,MA3G0028,18.0392,-15.9569
2499,153,13-Nouakchott,Arafat,Arafat,18.07023889,-15.96287778,Prive,Urbain,0.0,ALEM CHEN AKITA,13701001.0,2.0,3.0,58.0,7.0,1.0,1.0,1.0,0.23,3G,MR3G0044,18.071432,-15.961064000000002
2500,117,13-Nouakchott,Arafat,Arafat,18.04362,-15.97269,prive,Urbain,0.0,AMADOU HAMPATE BA,13701001.0,6.0,6.0,245.0,7.0,1.0,1.0,7.0,0.34,3G,MR3G0043,18.046492,-15.973707000000001
2501,31,13-Nouakchott,Arafat,Arafat,18.06005,-15.9687,public,Urbain,0.0,ARAFAT 4,13701001.0,8.0,6.0,255.0,9.0,0.0,0.0,12.0,0.19,3G,MC3G0168,18.05939,-15.970320000000001
2502,42,13-Nouakchott,Arafat,Arafat,18.072457999999997,-15.960103,public,Urbain,0.0,ARAFAT2,13701001.0,26.0,3.0,1878.0,54.0,1.0,1.0,4.0,0.15,3G,MR3G0044,18.071432,-15.961064000000002
2503,161,13-Nouakchott,Arafat,Arafat,18.03671,-15.961210000000001,Public,Urbain,1301505.0,ARRAFAT 4,13701001.0,15.0,7.0,375.0,30.0,0.0,0.0,8.0,0.15,3G,MC3G0193,18.03537,-15.961379999999998
2504,111,13-Nouakchott,Arafat,Arafat,18.06844,-15.95466,prive,Urbain,0.0,ATARBIYA,13701001.0,5.0,6.0,65.0,6.0,1.0,0.0,1.0,0.24,3G,MR3G0047,18.070206,-15.953378
2505,162,13-Nouakchott,Arafat,Arafat,18.05412,-15.972529999999999,Prive,Urbain,1065.0,ATLASSI,13701001.0,20.0,10.0,497.0,21.0,1.0,1.0,4.0,0.15,3G,MC3G0192,18.05441667,-15.97112222
2506,37,13-Nouakchott,Arafat,Arafat,18.061329999999998,-15.9648,prive,Urbain,0.0,BAB EL MOUSTAKBEL,13701001.0,10.0,6.0,158.0,11.0,1.0,1.0,1.0,0.47,3G,MR3G0041,18.0612267,-15.960370000000001
2507,71,13-Nouakchott,Arafat,Arafat,18.03671,-15.961210000000001,prive,Urbain,0.0,BAB OULOUM,13701001.0,8.0,6.0,192.0,9.0,1.0,1.0,4.0,0.15,3G,MC3G0193,18.03537,-15.961379999999998
2508,90,13-Nouakchott,Arafat,Arafat,18.061329999999998,-15.9648,prive,Urbain,0.0,BAIT EL HIKAM,13701001.0,3.0,4.0,82.0,4.0,1.0,0.0,1.0,0.47,3G,MR3G0041,18.0612267,-15.960370000000001
2509,164,13-Nouakchott,Arafat,Arafat,18.03671,-15.961210000000001,Prive,Urbain,704.0,BOURGEON ET MABARE,13701001.0,13.0,12.0,268.0,23.0,1.0,1.0,1.0,0.15,3G,MC3G0193,18.03537,-15.961379999999998
2510,10,13-Nouakchott,Arafat,Arafat,18.05275,-15.97016,public,Urbain,0.0,CHEIKH HAMAHOULAH,13701001.0,18.0,6.0,437.0,19.0,0.0,0.0,8.0,0.21,3G,MC3G0192,18.05441667,-15.97112222
2511,79,13-Nouakchott,Arafat,Arafat,18.043779999999998,-15.9596,prive,Urbain,0.0,CHEIKH MED MOUSTAPHA,13701001.0,1.0,2.0,51.0,2.0,0.0,0.0,2.0,0.33,3G,MC3G0173,18.046310000000002,-15.957989999999999
2512,6,13-Nouakchott,Arafat,Arafat,18.07023,-15.945020000000001,prive,Urbain,0.0,CHEIKH MED VADEL,13701001.0,17.0,6.0,496.0,18.0,0.0,0.0,16.0,0.1,3G,MR3G0051,18.07105556,-15.94472222
2513,5,13-Nouakchott,Arafat,Arafat,18.06128,-15.94307,public,Urbain,0.0,CHEIKH MOHAMED HAVED,13701001.0,18.0,6.0,475.0,19.0,0.0,0.0,4.0,0.5,3G,MC3G0199,18.06208056,-15.93840833
2514,49,13-Nouakchott,Arafat,Arafat,18.07105,-15.96255833,public,Urbain,0.0,CHEIKH SAAD BOUH,13701001.0,10.0,6.0,283.0,11.0,0.0,0.0,6.0,0.16,3G,MR3G0044,18.071432,-15.961064000000002
2515,131,13-Nouakchott,Arafat,Arafat,18.05519,-15.95449,Public,Urbain,1301503.0,COLLEGE ARAFAT2,13701001.0,9.0,7.0,225.0,27.0,0.0,1.0,2.0,0.14,3G,MC3G0172,18.05636389,-15.95413611
2516,139,13-Nouakchott,Arafat,Arafat,18.07241,-15.948229999999999,Public,Urbain,13015015.0,COLLEGE ARAFAT3,13701001.0,10.0,7.0,250.0,22.0,0.0,1.0,8.0,0.08,3G,MC3G0181,18.072979999999998,-15.94871
2517,160,13-Nouakchott,Arafat,Arafat,18.049129999999998,-15.95928,Prive,Urbain,1301506.0,COLLEGE ARAFAT5,13701001.0,14.0,7.0,350.0,24.0,0.0,1.0,8.0,0.32,3G,MR3G0040,18.04819444,-15.96216667
2518,140,13-Nouakchott,Arafat,Arafat,18.07105,-15.94348,Public,Urbain,1301507.0,COLLEGE ARAFAT6,13701001.0,6.0,7.0,166.0,20.0,0.0,0.0,6.0,0.12,3G,MC3G0220,18.071170000000002,-15.944629999999998
2519,147,13-Nouakchott,Arafat,Arafat,18.06126,-15.95749,Public,Urbain,1301508.0,COLLEGE ARAFAT7,13701001.0,13.0,7.0,325.0,26.0,0.0,1.0,10.0,0.22,3G,MC3G0206,18.0605,-15.95555
2520,44,13-Nouakchott,Arafat,Arafat,18.0743,-15.96473,prive,Urbain,0.0,DAR EL FICR,13701001.0,6.0,6.0,151.0,7.0,1.0,1.0,2.0,0.19,3G,MA3G0151,18.07591,-15.964070000000001
2521,151,13-Nouakchott,Arafat,Arafat,18.0743,-15.96473,Prive,Urbain,88.0,DAR EL VIKR,13701001.0,4.0,6.0,108.0,13.0,1.0,1.0,2.0,0.19,3G,MA3G0151,18.07591,-15.964070000000001
2522,113,13-Nouakchott,Arafat,Arafat,18.06035,-15.953339999999999,public,Urbain,0.0,D'HOU NOUREINY,13701001.0,17.0,6.0,553.0,18.0,1.0,1.0,7.0,0.23,3G,MR3G0038,18.06192,-15.95196
2523,155,13-Nouakchott,Arafat,Arafat,18.0754,-15.96292,Prive,Urbain,7700.0,DOURRA,13701001.0,6.0,8.0,148.0,11.0,1.0,1.0,2.0,0.13,3G,MA3G0151,18.07591,-15.964070000000001
2524,65,13-Nouakchott,Arafat,Arafat,18.04017,-15.959760000000001,public,Urbain,0.0,ECOLE BAKAR,13701001.0,17.0,6.0,670.0,18.0,1.0,0.0,6.0,0.32,3G,MA3G0028,18.0392,-15.9569
2525,104,13-Nouakchott,Arafat,Arafat,18.04879,-15.96865,prive,Urbain,0.0,ECOLE EZZYADA,13701001.0,5.0,6.0,70.0,6.0,1.0,1.0,2.0,0.17,3G,MC3G0169,18.04789,-15.969929999999998
2526,60,13-Nouakchott,Arafat,Arafat,18.036739999999998,-15.961089999999999,public,Urbain,0.0,ECOLE HAMZA,13701001.0,19.0,6.0,481.0,20.0,1.0,0.0,8.0,0.16,3G,MC3G0193,18.03537,-15.961379999999998
2527,34,13-Nouakchott,Arafat,Arafat,18.07287,-15.966029999999998,public,Urbain,0.0,ECOLE HOUSSEIN 1,13701001.0,9.0,6.0,226.0,10.0,0.0,0.0,4.0,0.26,3G,MC3G0164,18.07272222,-15.96852778
2528,100,13-Nouakchott,Arafat,Arafat,18.06701944,-15.96322222,prive,Urbain,0.0,ECOLE MIMBAR,13701001.0,13.0,6.0,293.0,14.0,1.0,1.0,2.0,0.24,3G,MR3G0045,18.066323,-15.965399
2529,165,13-Nouakchott,Arafat,Arafat,18.03744,-15.954989999999999,Prive,Urbain,237.0,EDOUWAY,13701001.0,7.0,10.0,254.0,14.0,1.0,1.0,1.0,0.17,3G,MC3G0217,18.036284,-15.953998
2530,107,13-Nouakchott,Arafat,Arafat,18.06074,-15.945839999999999,prive,Urbain,0.0,EL BIRR,13701001.0,9.0,6.0,189.0,10.0,1.0,0.0,3.0,0.66,3G,MR3G0038,18.06192,-15.95196
2531,129,13-Nouakchott,Arafat,Arafat,18.06079,-15.945789999999999,Prive,Urbain,608.0,EL BIRRE,13701001.0,3.0,4.0,75.0,9.0,1.0,0.0,2.0,0.66,3G,MR3G0038,18.06192,-15.95196
2532,55,13-Nouakchott,Arafat,Arafat,18.053079999999998,-15.960529999999999,public,Urbain,0.0,EL FETH ALI,13701001.0,7.0,6.0,168.0,8.0,1.0,1.0,2.0,0.16,3G,MC3G0215,18.05211667,-15.95940278
2533,41,13-Nouakchott,Arafat,Arafat,18.07396,-15.964839999999999,public,Urbain,0.0,EL HACEN,13701001.0,10.0,6.0,291.0,11.0,0.0,0.0,6.0,0.23,3G,MA3G0151,18.07591,-15.964070000000001
2534,28,13-Nouakchott,Arafat,Arafat,18.057389999999998,-15.97284,prive,Urbain,0.0,EL HAMD,13701001.0,5.0,6.0,134.0,6.0,0.0,1.0,2.0,0.31,3G,MR3G0065,18.056520000000003,-15.97564
2535,128,13-Nouakchott,Arafat,Arafat,18.07733,-15.96061,Prive,Urbain,963.0,EL HOUDA,13701001.0,10.0,7.0,250.0,25.0,1.0,1.0,1.0,0.33,3G,MC3G0166,18.07501,-15.95871
2536,1,13-Nouakchott,Arafat,Arafat,18.07699,-15.960560000000001,prive,Urbain,0.0,EL HOUDA,13701001.0,8.0,6.0,86.0,9.0,1.0,1.0,2.0,0.29,3G,MC3G0166,18.07501,-15.95871
2537,54,13-Nouakchott,Arafat,Arafat,18.036739999999998,-15.961089999999999,prive,Urbain,0.0,EL IBDAA,13701001.0,7.0,6.0,124.0,8.0,1.0,1.0,3.0,0.16,3G,MC3G0193,18.03537,-15.961379999999998
2538,145,13-Nouakchott,Arafat,Arafat,18.057389999999998,-15.97284,Prive,Urbain,130101164.0,EL ICHAA,13701001.0,10.0,12.0,268.0,19.0,0.0,1.0,2.0,0.31,3G,MR3G0065,18.056520000000003,-15.97564
2539,146,13-Nouakchott,Arafat,Arafat,18.058529999999998,-15.955820000000001,Prive,Urbain,287.0,EL INAYA,13701001.0,13.0,13.0,414.0,23.0,1.0,1.0,2.0,0.22,3G,MC3G0206,18.0605,-15.95555
2540,166,13-Nouakchott,Arafat,Arafat,18.036739999999998,-15.961089999999999,Prive,Urbain,1128.0,EL IRDAA,13701001.0,6.0,7.0,150.0,18.0,1.0,1.0,2.0,0.16,3G,MC3G0193,18.03537,-15.961379999999998
2541,150,13-Nouakchott,Arafat,Arafat,18.0745,-15.9603,Prive,Urbain,501.0,EL ISLAH AID,13701001.0,21.0,7.0,525.0,38.0,1.0,1.0,2.0,0.18,3G,MC3G0166,18.07501,-15.95871
2542,171,13-Nouakchott,Arafat,Arafat,18.066317,-15.938735999999999,Prive,Urbain,0.0,EL IZDIHAR,13701001.0,6.0,9.0,131.0,14.0,1.0,1.0,2.0,0.47,3G,MC3G0199,18.06208056,-15.93840833
2543,12,13-Nouakchott,Arafat,Arafat,18.03679,-15.960989999999999,prive,Urbain,0.0,EL KEWKEB,13701001.0,5.0,6.0,87.0,6.0,1.0,0.0,1.0,0.16,3G,MC3G0193,18.03537,-15.961379999999998
2544,89,13-Nouakchott,Arafat,Arafat,18.0593,-15.95665,prive,Urbain,0.0,EL MAALI,13701001.0,10.0,6.0,328.0,11.0,1.0,1.0,3.0,0.18,3G,MC3G0206,18.0605,-15.95555
2545,83,13-Nouakchott,Arafat,Arafat,18.06983,-15.962279999999998,prive,Urbain,0.0,EL MALAZE,13701001.0,5.0,6.0,136.0,6.0,1.0,1.0,2.0,0.22,3G,MR3G0044,18.071432,-15.961064000000002
2546,75,13-Nouakchott,Arafat,Arafat,18.04375,-15.9677,prive,Urbain,0.0,EL MOUTE ALEM ELVAGHIH,13701001.0,4.0,5.0,81.0,5.0,1.0,0.0,3.0,0.22,3G,MA3G0002,18.0455,-15.9686
2547,11,13-Nouakchott,Arafat,Arafat,18.07378,-15.957020000000002,prive,Urbain,0.0,EL OUTOUR1,13701001.0,14.0,6.0,273.0,15.0,1.0,1.0,2.0,0.19,3G,MA3G0055,18.0754,-15.9564
2548,91,13-Nouakchott,Arafat,Arafat,18.06955,-15.964870000000001,prive,Urbain,0.0,EL VADHILA,13701001.0,7.0,6.0,88.0,8.0,1.0,1.0,2.0,0.26,3G,MR3G0046,18.070284,-15.96725
2549,78,13-Nouakchott,Arafat,Arafat,18.071270000000002,-15.962489999999999,prive,Urbain,0.0,EL VAROUGH,13701001.0,11.0,6.0,327.0,12.0,0.0,0.0,7.0,0.15,3G,MR3G0044,18.071432,-15.961064000000002
2550,159,13-Nouakchott,Arafat,Arafat,18.04727,-15.97165,Prive,Urbain,106.0,EL WAFA,13701001.0,6.0,7.0,150.0,18.0,1.0,1.0,7.0,0.19,3G,MC3G0169,18.04789,-15.969929999999998
2551,52,13-Nouakchott,Arafat,Arafat,18.04727,-15.97165,prive,Urbain,0.0,EL WEVA,13701001.0,17.0,6.0,299.0,18.0,1.0,1.0,3.0,0.19,3G,MC3G0169,18.04789,-15.969929999999998
2552,88,13-Nouakchott,Arafat,Arafat,18.06887,-15.9521,prive,Urbain,0.0,EMEHEL EJIDID,13701001.0,7.0,6.0,82.0,8.0,1.0,0.0,2.0,0.2,3G,MR3G0047,18.070206,-15.953378
2553,149,13-Nouakchott,Arafat,Arafat,18.06919,-15.95159,Prive,Urbain,710.0,EMJAD,13701001.0,1.0,4.0,25.0,8.0,0.0,1.0,2.0,0.22,3G,MR3G0047,18.070206,-15.953378
2554,24,13-Nouakchott,Arafat,Arafat,18.06919,-15.95159,prive,Urbain,0.0,EMJAD ARAFAT,13701001.0,5.0,6.0,91.0,6.0,0.0,1.0,2.0,0.22,3G,MR3G0047,18.070206,-15.953378
2555,168,13-Nouakchott,Arafat,Arafat,18.05051,-15.955029999999999,Prive,Urbain,0.0,EMMZARID,13701001.0,3.0,4.0,75.0,9.0,1.0,1.0,1.0,0.36,3G,MA3G0152,18.04738,-15.9542
2556,82,13-Nouakchott,Arafat,Arafat,18.05049,-15.955010000000001,prive,Urbain,0.0,ENNAZZARIE,13701001.0,6.0,6.0,166.0,7.0,1.0,1.0,2.0,0.36,3G,MA3G0152,18.04738,-15.9542
2557,156,13-Nouakchott,Arafat,Arafat,18.040177,-15.95975,Prive,Urbain,465.0,ERRAJA,13701001.0,5.0,5.0,125.0,10.0,1.0,1.0,1.0,0.32,3G,MA3G0028,18.0392,-15.9569
2558,61,13-Nouakchott,Arafat,Arafat,18.04017,-15.95975,prive,Urbain,0.0,ERRAJA,13701001.0,10.0,6.0,235.0,11.0,1.0,1.0,2.0,0.32,3G,MA3G0028,18.0392,-15.9569
2559,136,13-Nouakchott,Arafat,Arafat,18.04879,-15.96865,Prive,Urbain,211.0,ESSYADA,13701001.0,4.0,7.0,100.0,15.0,1.0,1.0,0.0,0.17,3G,MC3G0169,18.04789,-15.969929999999998
2560,99,13-Nouakchott,Arafat,Arafat,18.07374167,-15.96637222,prive,Urbain,0.0,ETTAWOUK,13701001.0,5.0,6.0,137.0,6.0,1.0,1.0,1.0,0.25,3G,MC3G0164,18.07272222,-15.96852778
2561,132,13-Nouakchott,Arafat,Arafat,18.07374167,-15.96637222,Prive,Urbain,689.0,ETTAWOUKH,13701001.0,5.0,7.0,125.0,14.0,1.0,1.0,1.0,0.25,3G,MC3G0164,18.07272222,-15.96852778
2562,29,13-Nouakchott,Arafat,Arafat,18.057129999999997,-15.95316,prive,Urbain,0.0,EZEMAN,13701001.0,5.0,6.0,189.0,6.0,1.0,1.0,2.0,0.13,3G,MC3G0172,18.05636389,-15.95413611
2563,172,13-Nouakchott,Arafat,Arafat,18.047320000000003,-15.958089999999999,Prive,Urbain,789.0,Ghalem,13701001.0,10.0,10.0,395.0,16.0,1.0,0.0,1.0,0.11,3G,MC3G0173,18.046310000000002,-15.957989999999999
2564,8,13-Nouakchott,Arafat,Arafat,18.07475,-15.954820000000002,prive,Urbain,0.0,GROUPE SCOLAIRE DESCARTES,13701001.0,6.0,6.0,213.0,7.0,1.0,1.0,3.0,0.18,3G,MA3G0055,18.0754,-15.9564
2565,23,13-Nouakchott,Arafat,Arafat,18.0623,-15.960820000000002,public,Urbain,0.0,HAMED O/ TOLBA,13701001.0,11.0,6.0,468.0,12.0,0.0,0.0,12.0,0.1,3G,MA3G0048,18.062,-15.9599
2566,33,13-Nouakchott,Arafat,Arafat,18.05697222,-15.96276667,public,Urbain,0.0,HOUSSEIN 2,13701001.0,9.0,6.0,250.0,10.0,0.0,0.0,0.0,0.26,3G,MC3G0170,18.054660000000002,-15.96311
2567,38,13-Nouakchott,Arafat,Arafat,18.05477,-15.959520000000001,prive,Urbain,0.0,IBN KHALDOUN,13701001.0,7.0,6.0,139.0,8.0,1.0,1.0,2.0,0.3,3G,MC3G0215,18.05211667,-15.95940278
2568,45,13-Nouakchott,Arafat,Arafat,18.075275,-15.96175833,prive,Urbain,0.0,IBN YACINE,13701001.0,9.0,6.0,105.0,10.0,1.0,1.0,2.0,0.25,3G,MA3G0151,18.07591,-15.964070000000001
2569,115,13-Nouakchott,Arafat,Arafat,18.05249,-15.97,prive,Urbain,0.0,IBNA ACHIR,13701001.0,5.0,6.0,61.0,6.0,1.0,0.0,2.0,0.24,3G,MC3G0192,18.05441667,-15.97112222
2570,63,13-Nouakchott,Arafat,Arafat,18.042070000000002,-15.96074,prive,Urbain,0.0,ISDIHANE,13701001.0,4.0,5.0,63.0,5.0,0.0,0.0,2.0,0.26,3G,MC3G0204,18.04126,-15.963029999999998
2571,4,13-Nouakchott,Arafat,Arafat,18.06704,-15.942870000000001,prive,Urbain,0.0,ISLAH NEMOLOGIE,13701001.0,7.0,6.0,142.0,8.0,0.0,0.0,2.0,0.11,3G,MC3G0225,18.06675,-15.94386111
2572,42,13-Nouakchott,Arafat,Arafat,18.0745,-15.9603,prive,Urbain,0.0,ISLAH RAID,13701001.0,25.0,6.0,658.0,26.0,1.0,1.0,4.0,0.18,3G,MC3G0166,18.07501,-15.95871
2573,96,13-Nouakchott,Arafat,Arafat,18.06795,-15.950920000000002,public,Urbain,0.0,KHATRY1,13701001.0,12.0,6.0,295.0,13.0,1.0,0.0,6.0,0.36,3G,MR3G0047,18.070206,-15.953378
2574,97,13-Nouakchott,Arafat,Arafat,18.06795,-15.950920000000002,public,Urbain,0.0,KHATRY2,13701001.0,8.0,6.0,252.0,9.0,1.0,0.0,12.0,0.36,3G,MR3G0047,18.070206,-15.953378
2575,47,13-Nouakchott,Arafat,Arafat,18.05315,-15.96045,public,Urbain,0.0,LEMRABOT SIDI MAHMOUD,13701001.0,18.0,6.0,576.0,19.0,1.0,1.0,16.0,0.16,3G,MC3G0215,18.05211667,-15.95940278
2576,142,13-Nouakchott,Arafat,Arafat,18.072370000000003,-15.96008,Public,Urbain,1301502.0,LYCEE ARAFAT 2,13701001.0,25.0,7.0,625.0,50.0,1.0,1.0,6.0,0.15,3G,MR3G0044,18.071432,-15.961064000000002
2577,158,13-Nouakchott,Arafat,Arafat,18.047755,-15.97099528,Prive,Urbain,1301501.0,LYCEE ARAFAT1,13701001.0,11.0,7.0,291.0,35.0,1.0,1.0,11.0,0.11,3G,MC3G0169,18.04789,-15.969929999999998
2578,144,13-Nouakchott,Arafat,Arafat,18.05823,-15.96555,Public,Urbain,1301509.0,LYCEE D'EXCELLENCE2,13701001.0,6.0,7.0,150.0,17.0,1.0,1.0,3.0,0.29,3G,MR3G0049,18.058188,-15.968339000000002
2579,70,13-Nouakchott,Arafat,Arafat,18.03833611,-15.95872778,prive,Urbain,0.0,MAADAN,13701001.0,11.0,6.0,385.0,12.0,1.0,1.0,1.0,0.22,3G,MA3G0028,18.0392,-15.9569
2580,163,13-Nouakchott,Arafat,Arafat,18.058729999999997,-15.969320000000002,Prive,Urbain,0.0,MAINE TAGHAFA,13701001.0,12.0,10.0,218.0,18.0,1.0,1.0,1.0,0.12,3G,MR3G0049,18.058188,-15.968339000000002
2581,59,13-Nouakchott,Arafat,Arafat,18.04017,-15.959779999999999,prive,Urbain,0.0,MAINE TAGHAFA(EXTENSION 3),13701001.0,4.0,5.0,54.0,5.0,1.0,0.0,2.0,0.32,3G,MA3G0028,18.0392,-15.9569
2582,98,13-Nouakchott,Arafat,Arafat,18.05507222,-15.95589722,public,Urbain,0.0,MED ALY O/ ADDOUD,13701001.0,17.0,6.0,614.0,18.0,0.0,0.0,6.0,0.24,3G,MC3G0172,18.05636389,-15.95413611
2583,114,13-Nouakchott,Arafat,Arafat,18.04584,-15.96165,prive,Urbain,0.0,MEKET MOUKARAM,13701001.0,3.0,4.0,42.0,4.0,1.0,1.0,2.0,0.11,3G,MC3G0203,18.04672,-15.96205
2584,72,13-Nouakchott,Arafat,Arafat,18.03815,-15.95943,prive,Urbain,0.0,MICHKATE,13701001.0,5.0,6.0,107.0,6.0,0.0,0.0,1.0,0.29,3G,MA3G0028,18.0392,-15.9569
2585,148,13-Nouakchott,Arafat,Arafat,18.05936,-15.95669,Prive,Urbain,202.0,MOHAMEDIYA,13701001.0,7.0,7.0,175.0,23.0,1.0,1.0,6.0,0.17,3G,MC3G0206,18.0605,-15.95555
2586,26,13-Nouakchott,Arafat,Arafat,18.05865,-15.95575,prive,Urbain,0.0,MOHAMEDYA,13701001.0,7.0,6.0,164.0,8.0,1.0,1.0,2.0,0.21,3G,MC3G0206,18.0605,-15.95555
2587,85,13-Nouakchott,Arafat,Arafat,18.04074,-15.95009,prive,Urbain,0.0,NABIDINE,13701001.0,5.0,6.0,73.0,6.0,1.0,0.0,2.0,0.33,3G,MC3G0202,18.0386,-15.947920000000002
2588,19,13-Nouakchott,Arafat,Arafat,18.0705,-15.93684,prive,Urbain,0.0,NAHDA2,13701001.0,3.0,4.0,84.0,4.0,0.0,0.0,0.0,0.29,3G,MA3G0160,18.073087,-15.93714
2589,64,13-Nouakchott,Arafat,Arafat,18.04348,-15.96469,prive,Urbain,0.0,NEMA TENGUELA,13701001.0,3.0,4.0,56.0,4.0,0.0,0.0,1.0,0.3,3G,MC3G0204,18.04126,-15.963029999999998
2590,138,13-Nouakchott,Arafat,Arafat,18.06449,-15.958039999999999,Prive,Urbain,342.0,NIBASSE,13701001.0,3.0,5.0,91.0,11.0,1.0,0.0,4.0,0.31,3G,MC3G0177,18.06622,-15.960289999999999
2591,103,13-Nouakchott,Arafat,Arafat,18.06449,-15.958039999999999,prive,Urbain,0.0,NIBRASSE,13701001.0,5.0,6.0,138.0,6.0,1.0,0.0,2.0,0.31,3G,MC3G0177,18.06622,-15.960289999999999
2592,105,13-Nouakchott,Arafat,Arafat,18.04472,-15.97037,public,Urbain,0.0,OUGBA,13701001.0,13.0,6.0,425.0,14.0,1.0,0.0,10.0,0.21,3G,MA3G0002,18.0455,-15.9686
2593,3,13-Nouakchott,Arafat,Arafat,18.07258889,-15.94917222,public,Urbain,0.0,OULD BOYA,13701001.0,10.0,6.0,332.0,11.0,1.0,0.0,8.0,0.07,3G,MC3G0181,18.072979999999998,-15.94871
2594,22,13-Nouakchott,Arafat,Arafat,18.073539999999998,-15.952779999999999,public,Urbain,0.0,OUMOUL MOUMININE,13701001.0,10.0,6.0,277.0,11.0,1.0,0.0,9.0,0.38,3G,MR3G0047,18.070206,-15.953378
2595,110,13-Nouakchott,Arafat,Arafat,18.05398611,-15.97421944,public,Urbain,0.0,OUSSAMA,13701001.0,11.0,1.0,399.0,12.0,0.0,0.0,7.0,0.32,3G,MR3G0065,18.056520000000003,-15.97564
2596,35,13-Nouakchott,Arafat,Arafat,18.07287,-15.966029999999998,public,Urbain,0.0,SAID BEN MOUSEIB,13701001.0,8.0,6.0,355.0,9.0,1.0,0.0,8.0,0.26,3G,MC3G0164,18.07272222,-15.96852778
2597,81,13-Nouakchott,Arafat,Arafat,18.04105,-15.960770000000002,prive,Urbain,0.0,SAIDOU NOUROU BA,13701001.0,7.0,6.0,156.0,8.0,1.0,0.0,4.0,0.24,3G,MC3G0204,18.04126,-15.963029999999998
2598,95,13-Nouakchott,Arafat,Arafat,18.06795,-15.950829999999998,public,Urbain,0.0,SIDI ABDALLAH1,13701001.0,7.0,6.0,236.0,8.0,0.0,0.0,4.0,0.37,3G,MR3G0047,18.070206,-15.953378
2599,77,13-Nouakchott,Arafat,Arafat,18.03818,-15.959420000000001,prive,Urbain,0.0,SIRAJ,13701001.0,8.0,6.0,6.0,9.0,1.0,0.0,2.0,0.29,3G,MA3G0028,18.0392,-15.9569
2600,50,13-Nouakchott,Arafat,Arafat,18.05665,-15.95788,prive,Urbain,0.0,SOULEM EL MOUSTAKBAL,13701001.0,2.0,3.0,4.0,3.0,1.0,0.0,2.0,0.4,3G,MC3G0172,18.05636389,-15.95413611
2601,112,13-Nouakchott,Arafat,Arafat,18.065260000000002,-15.95341,prive,Urbain,0.0,SOUMEYA,13701001.0,2.0,3.0,36.0,3.0,1.0,0.0,1.0,0.4,3G,MR3G0038,18.06192,-15.95196
2602,51,13-Nouakchott,Arafat,Arafat,18.036739999999998,-15.961089999999999,prive,Urbain,0.0,SUBEWEITH,13701001.0,5.0,6.0,58.0,6.0,1.0,1.0,2.0,0.16,3G,MC3G0193,18.03537,-15.961379999999998
2603,154,13-Nouakchott,Arafat,Arafat,18.06949,-15.9648,Prive,Urbain,406.0,TAGHADOUM,13701001.0,6.0,7.0,158.0,19.0,1.0,1.0,2.0,0.27,3G,MR3G0046,18.070284,-15.96725
2604,43,13-Nouakchott,Arafat,Arafat,18.06981,-15.962279999999998,prive,Urbain,0.0,TAGHADOUM,13701001.0,7.0,6.0,241.0,8.0,1.0,1.0,4.0,0.22,3G,MR3G0044,18.071432,-15.961064000000002
2605,74,13-Nouakchott,Arafat,Arafat,18.03671,-15.961210000000001,public,Urbain,0.0,TALEB ABDOUL WOHAB,13701001.0,12.0,6.0,412.0,13.0,1.0,0.0,6.0,0.15,3G,MC3G0193,18.03537,-15.961379999999998
2606,62,13-Nouakchott,Arafat,Arafat,18.04334,-15.96246,public,Urbain,0.0,TALEB AHMED O/ TOUERIJENA,13701001.0,16.0,6.0,258.0,17.0,0.0,0.0,10.0,0.24,3G,MC3G0204,18.04126,-15.963029999999998
2607,143,13-Nouakchott,Arafat,Arafat,18.070510000000002,-15.95708,Prive,Urbain,2234.0,TASHIH,13701001.0,15.0,11.0,296.0,22.0,1.0,1.0,2.0,0.2,3G,MC3G0197,18.0719,-15.9583
2608,56,13-Nouakchott,Arafat,Arafat,18.036739999999998,-15.961089999999999,prive,Urbain,0.0,TLAMID,13701001.0,9.0,6.0,93.0,10.0,1.0,0.0,2.0,0.16,3G,MC3G0193,18.03537,-15.961379999999998
2609,167,13-Nouakchott,Arafat,Arafat,18.0473,-15.95822,Prive,Urbain,203.0,TOURS DU SAVOIR,13701001.0,9.0,7.0,225.0,16.0,1.0,1.0,10.0,0.11,3G,MC3G0173,18.046310000000002,-15.957989999999999
2610,80,13-Nouakchott,Arafat,Arafat,18.047279999999997,-15.95822,prive,Urbain,0.0,TOURS DU SAVOIR,13701001.0,9.0,6.0,169.0,10.0,1.0,1.0,10.0,0.11,3G,MC3G0173,18.046310000000002,-15.957989999999999
2611,25,13-Nouakchott,Arafat,Arafat,18.066129999999998,-15.9525,public,Urbain,0.0,TOUVEIL IBN AMAR DOUSSI,13701001.0,9.0,6.0,218.0,10.0,1.0,1.0,12.0,0.46,3G,MR3G0047,18.070206,-15.953378
2612,157,13-Nouakchott,Arafat,Arafat,18.05375,-15.95795,Prive,Urbain,320.0,ZEM ZEM,13701001.0,10.0,10.0,310.0,17.0,1.0,1.0,2.0,0.24,3G,MC3G0215,18.05211667,-15.95940278
2613,14,13-Nouakchott,El mina,El mina,18.06973,-15.97725,public,Urbain,0.0,BAGDAD,13601001.0,8.0,6.0,310.0,9.0,1.0,0.0,2.0,0.07,3G,MR3G0063,18.07033,-15.977037
2614,4,13-Nouakchott,El mina,El mina,18.06786,-15.993,prive,Urbain,0.0,ABOU HOURAIRATOU,13601001.0,8.0,6.0,161.0,9.0,0.0,1.0,2.0,0.29,3G,MC3G0163,18.06961111,-15.995
2615,10,13-Nouakchott,El mina,El mina,18.06392,-15.99448,Prive,Urbain,0.0,ALPHA MALICK SALL,13601001.0,2.0,3.0,50.0,6.0,1.0,0.0,4.0,0.16,3G,MR3G0064,18.0629,-15.9934
2616,54,13-Nouakchott,El mina,El mina,18.06392,-15.99448,prive,Urbain,0.0,ALPHA MALIK FALL,13601001.0,6.0,6.0,173.0,7.0,1.0,0.0,3.0,0.16,3G,MR3G0064,18.0629,-15.9934
2617,16,13-Nouakchott,El mina,El mina,18.05639,-15.98908,public,Urbain,0.0,ARAFAT1,13601001.0,10.0,6.0,515.0,11.0,1.0,0.0,8.0,0.46,3G,MC3G0059,18.058472199999997,-15.9853333
2618,9,13-Nouakchott,El mina,El mina,18.06113,-15.99784,public,Urbain,0.0,ARAFAT3,13601001.0,7.0,6.0,295.0,8.0,0.0,0.0,2.0,0.26,3G,MR3G0143,18.059394,-15.99955
2619,18,13-Nouakchott,El mina,El mina,18.06925,-15.98559,public,Urbain,0.0,CAPITAL15,13601001.0,9.0,6.0,243.0,10.0,1.0,1.0,0.0,0.18,3G,MR3G0060,18.070847,-15.985535
2620,25,13-Nouakchott,El mina,El mina,18.05319,-15.99567,public,Urbain,0.0,CAPITAL18,13601001.0,10.0,6.0,370.0,11.0,0.0,0.0,12.0,0.2,2G,MC2G0028,18.051527800000002,-15.996333300000002
2621,1,13-Nouakchott,El mina,El mina,18.05622,-15.988220000000002,Public,Urbain,0.0,COLLEGE EL MINA,13601001.0,25.0,7.0,625.0,31.0,1.0,1.0,9.0,0.39,3G,MC3G0059,18.058472199999997,-15.9853333
2622,6,13-Nouakchott,El mina,El mina,18.02352,-15.98279,Public,Urbain,1303507.0,COLLEGE EL MINA 4,13601001.0,9.0,7.0,225.0,14.0,1.0,1.0,8.0,0.62,3G,MR3G0066,18.0291,-15.9823
2623,31,13-Nouakchott,El mina,El mina,18.03548,-15.97966,prive,Urbain,0.0,COUMBALY,13601001.0,7.0,6.0,98.0,8.0,1.0,1.0,12.0,0.75,3G,MC3G0184,18.02914722,-15.98215833
2624,17,13-Nouakchott,El mina,El mina,18.053727,-15.993707,Prive,Urbain,13030140.0,DAR EL AZHAR,13601001.0,6.0,7.0,150.0,24.0,1.0,1.0,2.0,0.3,3G,MC3G0052,18.05258056,-15.99115
2625,47,13-Nouakchott,El mina,El mina,18.06714,-15.9847,prive,Urbain,0.0,DAR EL AZHAR,13601001.0,9.0,6.0,338.0,10.0,1.0,1.0,16.0,0.29,3G,MC3G0057,18.06462778,-15.98391389
2626,7,13-Nouakchott,El mina,El mina,18.06383,-15.99455,Prive,Urbain,0.0,ECOLE PRIVEE MARIAM DIOP,13601001.0,3.0,6.0,75.0,12.0,0.0,1.0,2.0,0.16,3G,MR3G0064,18.0629,-15.9934
2627,28,13-Nouakchott,El mina,El mina,18.05169,-15.99213,prive,Urbain,0.0,ECOLE SEYDOU NOUROU TALL,13601001.0,5.0,6.0,131.0,6.0,1.0,1.0,2.0,0.14,3G,MC3G0052,18.05258056,-15.99115
2628,29,13-Nouakchott,El mina,El mina,18.03751,-16.01984,prive,Urbain,0.0,ECOLE WHARF,13601001.0,6.0,6.0,350.0,7.0,1.0,0.0,2.0,0.23,3G,MA3G0006,18.0395,-16.0192
2629,39,13-Nouakchott,El mina,El mina,18.061970000000002,-15.990920000000001,public,Urbain,0.0,ECOLE9,13601001.0,12.0,6.0,415.0,13.0,1.0,1.0,2.0,0.1,3G,MC3G0081,18.06158,-15.990079999999999
2630,16,13-Nouakchott,El mina,El mina,18.06716,-15.9891,Prive,Urbain,0.0,ECOLLE NOUVELLE,13601001.0,5.0,5.0,125.0,10.0,1.0,0.0,2.0,0.14,3G,MC3G0098,18.06681667,-15.990325
2631,44,13-Nouakchott,El mina,El mina,18.06101,-15.98449,prive,Urbain,0.0,EDUCATION POUR TOUS,13601001.0,7.0,6.0,135.0,8.0,0.0,1.0,2.0,0.27,3G,MC3G0058,18.0605833,-15.982000000000001
2632,8,13-Nouakchott,El mina,El mina,18.073729999999998,-15.98487,Prive,Urbain,142.0,EL GHOUDWA,13601001.0,4.0,6.0,100.0,13.0,1.0,1.0,2.0,0.26,3G,MC3G0034,18.07402,-15.98241
2633,4,13-Nouakchott,El mina,El mina,18.06188,-15.99461,Public,Urbain,1303508.0,EL MINA 2,13601001.0,9.0,7.0,225.0,27.0,0.0,1.0,6.0,0.17,3G,MR3G0064,18.0629,-15.9934
2634,5,13-Nouakchott,El mina,El mina,18.05507,-15.981420000000002,Public,Urbain,1303504.0,EL MINA 3,13601001.0,7.0,7.0,175.0,16.0,0.0,1.0,4.0,0.56,3G,MC3G0059,18.058472199999997,-15.9853333
2635,55,13-Nouakchott,El mina,El mina,18.07225,-15.976720000000002,prive,Urbain,0.0,EL VAIDA,13601001.0,5.0,6.0,6.0,6.0,1.0,1.0,2.0,0.1,3G,MA3G0012,18.0724,-15.9758
2636,58,13-Nouakchott,El mina,El mina,18.05104,-15.99205,prive,Urbain,0.0,EL ZOUBEIR IBN AWAH,13601001.0,6.0,6.0,152.0,7.0,0.0,0.0,2.0,0.11,3G,MR3G0062,18.050763,-15.993079999999999
2637,48,13-Nouakchott,El mina,El mina,18.05485,-15.987689999999999,prive,Urbain,0.0,ENERS PRIVE,13601001.0,10.0,6.0,115.0,11.0,1.0,1.0,1.0,0.24,3G,MC3G0056,18.05297222,-15.986638000000001
2638,33,13-Nouakchott,El mina,El mina,18.0355,-15.97964,prive,Urbain,0.0,EPITAXES,13601001.0,4.0,5.0,143.0,5.0,1.0,0.0,0.0,0.75,3G,MC3G0184,18.02914722,-15.98215833
2639,15,13-Nouakchott,El mina,El mina,18.07255,-15.976720000000002,prive,Urbain,0.0,ESPOIR,13601001.0,5.0,6.0,119.0,6.0,1.0,1.0,0.0,0.1,3G,MA3G0012,18.0724,-15.9758
2640,11,13-Nouakchott,El mina,El mina,18.05712778,-15.99406389,public,Urbain,0.0,GHAZALI,13601001.0,9.0,6.0,373.0,10.0,0.0,0.0,2.0,0.05,3G,MC3G0264,18.0569,-15.9937
2641,32,13-Nouakchott,El mina,El mina,18.0372,-15.97441,public,Urbain,0.0,IBN HAMBAL,13601001.0,7.0,6.0,279.0,8.0,1.0,0.0,8.0,0.66,3G,MA3G0153,18.03911,-15.96848
2642,2,13-Nouakchott,El mina,El mina,18.02776,-15.990739999999999,prive,Urbain,0.0,IKHLASS,13601001.0,9.0,6.0,317.0,10.0,1.0,0.0,1.0,0.47,3G,MA3G0004,18.029878,-15.986939999999999
2643,26,13-Nouakchott,El mina,El mina,18.05319,-15.99567,public,Urbain,0.0,IMAM HADRAMI1,13601001.0,13.0,6.0,480.0,14.0,0.0,0.0,2.0,0.2,2G,MC2G0028,18.051527800000002,-15.996333300000002
2644,19,13-Nouakchott,El mina,El mina,18.06492,-15.990620000000002,Prive,Urbain,0.0,INSTITUT DES LANGUES ARABE POUR LE NON ARABISANT,13601001.0,9.0,12.0,305.0,19.0,0.0,1.0,2.0,0.21,3G,MC3G0098,18.06681667,-15.990325
2645,65,13-Nouakchott,El mina,El mina,18.06302,-16.0002,prive,Urbain,0.0,LA CONCURRENCE,13601001.0,2.0,3.0,62.0,3.0,0.0,0.0,6.0,0.37,3G,MC3G0118,18.05973,-16.00056
2646,50,13-Nouakchott,El mina,El mina,18.06305,-15.99477,prive,Urbain,0.0,LA CONCURRENCE,13601001.0,7.0,6.0,206.0,8.0,1.0,1.0,2.0,0.15,3G,MR3G0064,18.0629,-15.9934
2647,22,13-Nouakchott,El mina,El mina,18.0612,-15.988620000000001,prive,Urbain,0.0,LE MERITE,13601001.0,3.0,4.0,117.0,4.0,0.0,1.0,9.0,0.15,3G,MA3G0007,18.0616,-15.99
2648,20,13-Nouakchott,El mina,El mina,18.0679,-15.98205,prive,Urbain,0.0,LE SAVOIR,13601001.0,5.0,6.0,217.0,6.0,1.0,1.0,0.0,0.39,3G,MR3G0061,18.064435,-15.981843
2649,27,13-Nouakchott,El mina,El mina,18.049,-15.99492,public,Urbain,0.0,LIMAM HADRAMI2,13601001.0,8.0,6.0,457.0,9.0,0.0,0.0,2.0,0.28,3G,MR3G0062,18.050763,-15.993079999999999
2650,37,13-Nouakchott,El mina,El mina,18.07744,-15.977079999999999,prive,Urbain,0.0,LIMANE SAMBA ALARBA,13601001.0,5.0,6.0,147.0,6.0,1.0,1.0,1.0,0.2,3G,MC3G0066,18.07866,-15.97574
2651,3,13-Nouakchott,El mina,El mina,18.0678,-15.9861,Public,Urbain,13035001.0,LYCEE EL MINA,13601001.0,14.0,7.0,350.0,42.0,0.0,1.0,4.0,0.2,3G,MC3G0091,18.068839999999998,-15.98763
2652,23,13-Nouakchott,El mina,El mina,18.0558,-15.997279999999998,public,Urbain,0.0,LYMANE HADRAMI3,13601001.0,11.0,6.0,424.0,12.0,0.0,0.0,12.0,0.14,3G,MC3G0020,18.0565278,-15.9983889
2653,13,13-Nouakchott,El mina,El mina,18.070014,-15.977129999999999,prive,Urbain,0.0,MA -ASSA,13601001.0,6.0,6.0,32.0,7.0,1.0,1.0,0.0,0.04,3G,MR3G0063,18.07033,-15.977037
2654,21,13-Nouakchott,El mina,El mina,18.06772,-15.98383,prive,Urbain,0.0,MACHALLAH,13601001.0,5.0,6.0,306.0,6.0,0.0,1.0,12.0,0.34,3G,MC3G0057,18.06462778,-15.98391389
2655,24,13-Nouakchott,El mina,El mina,18.02778,-15.98216,public,Urbain,0.0,MAKHA1,13601001.0,13.0,6.0,701.0,14.0,0.0,0.0,2.0,0.15,3G,MR3G0066,18.0291,-15.9823
2656,36,13-Nouakchott,El mina,El mina,18.01441,-15.990179999999999,public,Urbain,0.0,MED LEMINE O/ CHEIKH O/ BANE,13601001.0,5.0,6.0,231.0,6.0,0.0,1.0,2.0,0.14,3G,MC3G0190,18.0155,-15.989526999999999
2657,59,13-Nouakchott,El mina,El mina,18.027520000000003,-15.9814,prive,Urbain,0.0,MEDOUME SARR,13601001.0,7.0,6.0,151.0,8.0,1.0,1.0,2.0,0.2,3G,MC3G0184,18.02914722,-15.98215833
2658,14,13-Nouakchott,El mina,El mina,18.027520000000003,-15.9814,Prive,Urbain,0.0,MEDOUN SARR,13601001.0,12.0,4.0,300.0,8.0,1.0,1.0,3.0,0.2,3G,MC3G0184,18.02914722,-15.98215833
2659,34,13-Nouakchott,El mina,El mina,18.01843,-15.9833,public,Urbain,0.0,MEKKA2,13601001.0,8.0,6.0,403.0,9.0,0.0,0.0,4.0,0.73,3G,MC3G0190,18.0155,-15.989526999999999
2660,62,13-Nouakchott,El mina,El mina,18.05409,-15.98887,prive,Urbain,0.0,MOUTALY,13601001.0,5.0,6.0,175.0,6.0,1.0,1.0,10.0,0.27,3G,MC3G0056,18.05297222,-15.986638000000001
2661,10,13-Nouakchott,El mina,El mina,18.05931,-15.99322,public,Urbain,0.0,NESSIBA1,13601001.0,5.0,6.0,570.0,6.0,0.0,0.0,8.0,0.27,3G,MC3G0264,18.0569,-15.9937
2662,6,13-Nouakchott,El mina,El mina,18.05931,-15.993970000000001,public,Urbain,0.0,NESSIBA2,13601001.0,10.0,6.0,478.0,11.0,0.0,0.0,16.0,0.27,3G,MC3G0264,18.0569,-15.9937
2663,5,13-Nouakchott,El mina,El mina,18.05931,-15.993970000000001,public,Urbain,0.0,NESSIBA3,13601001.0,5.0,6.0,288.0,6.0,0.0,0.0,4.0,0.27,3G,MC3G0264,18.0569,-15.9937
2664,45,13-Nouakchott,El mina,El mina,18.05826,-15.97894,public,Urbain,0.0,OULD MAYABE2,13601001.0,7.0,6.0,326.0,8.0,1.0,0.0,2.0,0.33,3G,MA3G0027,18.057682999999997,-15.975882999999998
2665,63,13-Nouakchott,El mina,El mina,18.0184,-15.984010000000001,public,Urbain,0.0,OULD MOUTALY,13601001.0,7.0,6.0,523.0,8.0,0.0,0.0,2.0,0.67,3G,MC3G0190,18.0155,-15.989526999999999
2666,30,13-Nouakchott,El mina,El mina,18.03387,-15.98591,public,Urbain,0.0,OULD RAZGHE2,13601001.0,7.0,6.0,335.0,8.0,1.0,0.0,0.0,0.46,3G,MA3G0004,18.029878,-15.986939999999999
2667,8,13-Nouakchott,El mina,El mina,18.0711,-15.973220000000001,prive,Urbain,0.0,OUSMANE SARR,13601001.0,6.0,6.0,98.0,7.0,1.0,1.0,3.0,0.31,3G,MA3G0012,18.0724,-15.9758
2668,2,13-Nouakchott,El mina,El mina,18.06324,-15.99164,Public,Urbain,0.0,PROFESSEUR OUMAR BA,13601001.0,3.0,3.0,75.0,7.0,1.0,1.0,3.0,0.19,3G,MR3G0064,18.0629,-15.9934
2669,3,13-Nouakchott,El mina,El mina,18.02496,-15.98686,public,Urbain,0.0,RASGA1,13601001.0,11.0,6.0,690.0,12.0,0.0,0.0,8.0,0.55,3G,MA3G0004,18.029878,-15.986939999999999
2670,9,13-Nouakchott,El mina,El mina,18.06638,-15.990689999999999,Prive,Urbain,0.0,SCIENCE ET SAVOIR,13601001.0,21.0,13.0,658.0,27.0,1.0,1.0,6.0,0.06,3G,MC3G0098,18.06681667,-15.990325
2671,41,13-Nouakchott,El mina,El mina,18.05489,-15.981720000000001,public,Urbain,0.0,SEDOUME 2,13601001.0,9.0,6.0,395.0,10.0,1.0,0.0,6.0,0.55,3G,MC3G0059,18.058472199999997,-15.9853333
2672,42,13-Nouakchott,El mina,El mina,18.0549,-15.981760000000001,public,Urbain,0.0,SEDOUME1,13601001.0,10.0,6.0,576.0,11.0,0.0,0.0,4.0,0.55,3G,MC3G0059,18.058472199999997,-15.9853333
2673,19,13-Nouakchott,El mina,El mina,18.06689,-15.982095000000001,prive,Urbain,0.0,SUNA MOUHAMEDIYA,13601001.0,4.0,5.0,97.0,5.0,1.0,0.0,0.0,0.27,3G,MR3G0061,18.064435,-15.981843
2674,18,13-Nouakchott,El mina,El mina,18.06136,-15.98954,Prive,Urbain,0.0,TAWFIGH,13601001.0,10.0,12.0,230.0,21.0,1.0,1.0,8.0,0.06,3G,MA3G0007,18.0616,-15.99
2675,40,13-Nouakchott,El mina,El mina,18.06403,-15.982879999999998,public,Urbain,0.0,TAYSIR,13601001.0,13.0,6.0,472.0,14.0,1.0,1.0,2.0,0.12,3G,MR3G0061,18.064435,-15.981843
2676,12,13-Nouakchott,El mina,El mina,18.061339999999998,-15.988439999999999,prive,Urbain,0.0,THIERNO MAMADOU BOUBACAR KANE,13601001.0,6.0,6.0,124.0,7.0,1.0,1.0,1.0,0.17,3G,MA3G0007,18.0616,-15.99
2677,1,13-Nouakchott,El mina,El mina,18.027179999999998,-15.986939999999999,prive,Urbain,0.0,THIERNO MOUNTAGHA TALL,13601001.0,12.0,6.0,990.0,13.0,0.0,1.0,2.0,0.3,3G,MA3G0004,18.029878,-15.986939999999999
2678,13,13-Nouakchott,El mina,El mina,18.07165,-15.983220000000001,Prive,Urbain,0.0,THIERNO YAYA BASS,13601001.0,9.0,10.0,210.0,16.0,1.0,1.0,2.0,0.05,2G,MC2G0089,18.07146111,-15.98363333
2679,57,13-Nouakchott,El mina,El mina,18.01566,-15.984589999999999,prive,Urbain,0.0,ZOUBEIR IBN AWAM,13601001.0,6.0,6.0,135.0,7.0,1.0,0.0,2.0,0.52,3G,MC3G0190,18.0155,-15.989526999999999
2680,4,13-Nouakchott,Ksar,Ksar,18.0844,-15.97168,public,Urbain,0.0,ANNEXE,13201001.0,20.0,6.0,298.0,21.0,1.0,1.0,2.0,0.2,2G,MR2G0104,18.08396,-15.969852
2681,32,13-Nouakchott,Ksar,Ksar,18.07953,-15.97631,Prive,Urbain,256.0,AVENIR,13201001.0,8.0,11.0,268.0,17.0,0.0,0.0,4.0,0.11,3G,MC3G0066,18.07866,-15.97574
2682,22,13-Nouakchott,Ksar,Ksar,18.08201,-15.975029999999999,Prive,Urbain,0.0,BAB EL ILM,13201001.0,5.0,7.0,125.0,15.0,1.0,1.0,2.0,0.08,3G,MC3G0155,18.08188889,-15.97580556
2683,39,13-Nouakchott,Ksar,Ksar,18.11372,-15.94697,Prive,Urbain,0.0,BILAL EL WELY,13201001.0,11.0,6.0,275.0,13.0,1.0,1.0,4.0,0.2,3G,MA3G0020,18.115,-15.9483
2684,15,13-Nouakchott,Ksar,Ksar,18.085639999999998,-15.972570000000001,public,Urbain,0.0,CAPITALE 8,13201001.0,8.0,6.0,163.0,9.0,1.0,1.0,0.0,0.26,3G,MC3G0160,18.0879,-15.97308
2685,35,13-Nouakchott,Ksar,Ksar,18.0797,-15.972920000000002,Public,Urbain,1304507.0,COLLEGE ARABE,13201001.0,14.0,7.0,350.0,17.0,1.0,1.0,8.0,0.29,3G,MR3G0072,18.08107,-15.9753
2686,36,13-Nouakchott,Ksar,Ksar,18.0789,-15.973279999999999,Public,Urbain,1304505.0,COLLEGE DES JEUNES FILLES,13201001.0,10.0,7.0,250.0,22.0,1.0,1.0,12.0,0.26,3G,MC3G0066,18.07866,-15.97574
2687,43,13-Nouakchott,Ksar,Ksar,18.09892,-15.960320000000001,Public,Urbain,13080805.0,COLLEGE DU KSAR,13201001.0,14.0,7.0,350.0,30.0,1.0,1.0,11.0,0.38,3G,MR3G0077,18.09558333,-15.96097222
2688,37,13-Nouakchott,Ksar,Ksar,18.107229999999998,-15.954579999999998,Prive,Urbain,0.0,DAR EL OULOUM,13201001.0,24.0,7.0,600.0,31.0,1.0,1.0,15.0,0.26,3G,MC3G0073,18.10491667,-15.95513889
2689,24,13-Nouakchott,Ksar,Ksar,18.083389999999998,-15.97535,Prive,Urbain,0.0,ECOLE PRIVE EL MANARA,13201001.0,5.0,7.0,125.0,15.0,1.0,1.0,2.0,0.08,3G,MA3G0008,18.0836,-15.9746
2690,29,13-Nouakchott,Ksar,Ksar,18.08278,-15.974720000000001,Prive,Urbain,0.0,ECOLE PRIVEE EL KHIYAR,13201001.0,18.0,6.0,450.0,12.0,1.0,1.0,8.0,0.09,3G,MA3G0008,18.0836,-15.9746
2691,44,13-Nouakchott,Ksar,Ksar,18.100179999999998,-15.9571,Prive,Urbain,1110.0,EL AWAIL,13201001.0,13.0,9.0,224.0,14.0,1.0,1.0,2.0,0.15,3G,MA3G0022,18.0993,-15.956
2692,23,13-Nouakchott,Ksar,Ksar,18.08182,-15.97485,Prive,Urbain,0.0,EL BARAKA,13201001.0,30.0,7.0,750.0,68.0,0.0,0.0,2.0,0.1,3G,MR3G0072,18.08107,-15.9753
2693,41,13-Nouakchott,Ksar,Ksar,18.118129999999997,-15.953289999999999,Prive,Urbain,2363.0,EL GHALEM,13201001.0,10.0,4.0,250.0,8.0,0.0,1.0,2.0,0.1,3G,MR3G0126,18.117229000000002,-15.953558
2694,6,13-Nouakchott,Ksar,Ksar,18.08275,-15.974739999999999,prive,Urbain,0.0,EL KHIYAR,13201001.0,11.0,6.0,346.0,12.0,1.0,1.0,16.0,0.1,3G,MA3G0008,18.0836,-15.9746
2695,42,13-Nouakchott,Ksar,Ksar,18.118479999999998,-15.94951,Prive,Urbain,828.0,EL MOHAMEDIYA EL HADTHA,13201001.0,14.0,7.0,350.0,26.0,1.0,1.0,2.0,0.25,3G,MC3G0070,18.11634,-15.9503
2696,20,13-Nouakchott,Ksar,Ksar,18.11843,-15.94951,prive,Urbain,0.0,EL MOUHAMEDIYA EL HADITHA,13201001.0,8.0,6.0,133.0,9.0,1.0,1.0,0.0,0.25,3G,MC3G0070,18.11634,-15.9503
2697,22,13-Nouakchott,Ksar,Ksar,18.10503,-15.95745,prive,Urbain,0.0,EL VADHILA,13201001.0,9.0,6.0,170.0,10.0,1.0,1.0,9.0,0.07,3G,MC3G0054,18.105275,-15.95801111
2698,10,13-Nouakchott,Ksar,Ksar,18.078282,-15.973635,prive,Urbain,0.0,IMAMA KISMA ALPHA,13201001.0,6.0,6.0,145.0,7.0,0.0,0.0,8.0,0.21,3G,MR3G0078,18.076478,-15.972942000000002
2699,38,13-Nouakchott,Ksar,Ksar,18.110789999999998,-15.950470000000001,Prive,Urbain,0.0,INARA,13201001.0,8.0,11.0,333.0,17.0,1.0,1.0,2.0,0.03,3G,MC3G0071,18.11057222,-15.95041111
2700,24,13-Nouakchott,Ksar,Ksar,18.101470000000003,-15.9557,public,Urbain,0.0,KSAR 1,13201001.0,10.0,6.0,257.0,11.0,1.0,0.0,2.0,0.07,3G,MC3G0045,18.10141,-15.95638
2701,34,13-Nouakchott,Ksar,Ksar,18.08011,-15.972970000000002,Public,Urbain,0.0,LYCEE ARABE,13201001.0,10.0,7.0,250.0,30.0,1.0,1.0,2.0,0.27,3G,MR3G0072,18.08107,-15.9753
2702,27,13-Nouakchott,Ksar,Ksar,18.08566,-15.97025,Public,Urbain,1304502.0,LYCEE DE GARCON 1,13201001.0,28.0,7.0,700.0,14.0,1.0,1.0,12.0,0.19,2G,MR2G0104,18.08396,-15.969852
2703,33,13-Nouakchott,Ksar,Ksar,18.07939,-15.973629999999998,Public,Urbain,1304504.0,LYCEE DE GARCON 2,13201001.0,24.0,7.0,600.0,42.0,1.0,1.0,3.0,0.24,3G,MC3G0066,18.07866,-15.97574
2704,30,13-Nouakchott,Ksar,Ksar,18.08523,-15.970189999999999,Public,Urbain,0.0,LYCEE D'EXCELLENCE 1,13201001.0,6.0,7.0,150.0,16.0,1.0,1.0,0.0,0.15,2G,MR2G0104,18.08396,-15.969852
2705,40,13-Nouakchott,Ksar,Ksar,18.115170000000003,-15.95326,Public,Urbain,130453.0,LYCEE EL JEDIDA,13201001.0,18.0,7.0,450.0,30.0,0.0,1.0,4.0,0.23,3G,MR3G0126,18.117229000000002,-15.953558
2706,17,13-Nouakchott,Ksar,Ksar,18.1118,-15.95561,public,Urbain,0.0,SIDI AHMED AIDDA,13201001.0,18.0,6.0,417.0,19.0,0.0,1.0,0.0,0.09,3G,MC3G0072,18.1122,-15.956370000000001
2707,24,13-Nouakchott,Riyadh,Riyadh,17.99834,-15.974520000000002,public,Urbain,0.0,ABASS II,13901001.0,9.0,6.0,281.0,10.0,0.0,0.0,2.0,0.06,3G,MC3G0208,17.998910000000002,-15.974429999999998
2708,69,13-Nouakchott,Riyadh,Riyadh,17.96012,-15.968860000000001,public,Urbain,0.0,ABDELLAHI IBN MESSOUD,13901001.0,3.0,4.0,90.0,4.0,0.0,0.0,2.0,2.12,3G,MC3G0207,17.979222,-15.969194
2709,67,13-Nouakchott,Riyadh,Riyadh,17.99008,-15.96849,prive,Urbain,0.0,ABOU HOURAIRATA 2,13901001.0,5.0,6.0,139.0,6.0,1.0,0.0,2.0,0.42,3G,MC3G0210,17.98631,-15.96822
2710,70,13-Nouakchott,Riyadh,Riyadh,17.999948,-15.944757999999998,prive,Urbain,0.0,ALWIYA,13901001.0,4.0,5.0,76.0,5.0,1.0,0.0,1.0,1.41,3G,MA3G0134,18.01138,-15.938989999999999
2711,3,13-Nouakchott,Riyadh,Riyadh,17.97576,-15.96945,prive,Urbain,0.0,AVENIR PK 12,13901001.0,5.0,6.0,126.0,6.0,1.0,0.0,8.0,0.39,3G,MC3G0207,17.979222,-15.969194
2712,31,13-Nouakchott,Riyadh,Riyadh,18.023429999999998,-15.972829999999998,public,Urbain,0.0,BILAL BEN RABAH,13901001.0,20.0,6.0,636.0,21.0,0.0,1.0,12.0,0.18,3G,MA3G0161,18.02507,-15.9728
2713,21,13-Nouakchott,Riyadh,Riyadh,17.999679999999998,-15.97323,prive,Urbain,0.0,CHEIKH YACOUB,13901001.0,7.0,6.0,241.0,8.0,1.0,1.0,12.0,0.15,3G,MC3G0208,17.998910000000002,-15.974429999999998
2714,74,13-Nouakchott,Riyadh,Riyadh,17.98554,-15.970429999999999,prive,Urbain,0.0,Complexe Franco-Mauritanienne,13901001.0,5.0,6.0,145.0,6.0,0.0,1.0,6.0,0.25,3G,MC3G0210,17.98631,-15.96822
2715,60,13-Nouakchott,Riyadh,Riyadh,18.0089,-15.9723,prive,Urbain,0.0,DAR EL FIKR RYADH,13901001.0,14.0,11.0,460.0,18.0,1.0,1.0,8.0,0.29,3G,MC3G0209,18.01122,-15.97105
2716,37,13-Nouakchott,Riyadh,Riyadh,18.010839999999998,-15.97396,public,Urbain,0.0,EBOU EYOUB 1,13901001.0,11.0,6.0,457.0,12.0,1.0,0.0,1.0,0.17,3G,MA3G0025,18.011,-15.9756
2717,38,13-Nouakchott,Riyadh,Riyadh,18.01106,-15.97386,public,Urbain,0.0,EBOU EYOUB 2,13901001.0,9.0,6.0,267.0,10.0,1.0,1.0,2.0,0.18,3G,MA3G0025,18.011,-15.9756
2718,26,13-Nouakchott,Riyadh,Riyadh,17.99834,-15.974520000000002,public,Urbain,0.0,EL ABASS 1,13901001.0,13.0,6.0,452.0,14.0,0.0,0.0,2.0,0.06,3G,MC3G0208,17.998910000000002,-15.974429999999998
2719,66,13-Nouakchott,Riyadh,Riyadh,18.030260000000002,-15.96214,public,Urbain,0.0,EL HADJ EL MECHRI,13901001.0,11.0,6.0,400.0,12.0,0.0,0.0,1.0,0.29,3G,MC3G0194,18.0327778,-15.961277800000001
2720,7,13-Nouakchott,Riyadh,Riyadh,18.0019,-15.97609,prive,Urbain,0.0,EL IBDHA,13901001.0,5.0,6.0,130.0,6.0,1.0,0.0,1.0,0.38,3G,MC3G0208,17.998910000000002,-15.974429999999998
2721,9,13-Nouakchott,Riyadh,Riyadh,17.97541,-15.96469,public,Urbain,0.0,EL ISLAH,13901001.0,8.0,6.0,145.0,9.0,1.0,0.0,2.0,0.45,3G,MR3G0151,17.9793,-15.9657
2722,39,13-Nouakchott,Riyadh,Riyadh,18.0198,-15.97419,prive,Urbain,0.0,EL MEDINA,13901001.0,5.0,6.0,67.0,6.0,1.0,0.0,2.0,0.2,3G,MR3G0082,18.0195,-15.97229
2723,65,13-Nouakchott,Riyadh,Riyadh,18.01551,-15.96145,public,Urbain,0.0,EL MEDINA TARHIL,13901001.0,9.0,6.0,562.0,10.0,0.0,0.0,6.0,0.34,3G,MR3G0083,18.017367999999998,-15.958956
2724,15,13-Nouakchott,Riyadh,Riyadh,17.99211,-15.96819,prive,Urbain,0.0,EL MENHEL JEDID,13901001.0,6.0,6.0,330.0,7.0,1.0,1.0,0.0,0.53,3G,MC3G0212,17.99033056,-15.97286111
2725,68,13-Nouakchott,Riyadh,Riyadh,18.030271,-15.956079999999998,prive,Urbain,0.0,EL MESSABIA,13901001.0,5.0,6.0,115.0,6.0,1.0,1.0,8.0,0.6,3G,MR3G0080,18.032768,-15.961098999999999
2726,49,13-Nouakchott,Riyadh,Riyadh,18.017770000000002,-15.95701,prive,Urbain,0.0,ESSIYADA,13901001.0,3.0,4.0,82.0,4.0,1.0,0.0,6.0,0.2,3G,MC3G0218,18.01761,-15.95894
2727,23,13-Nouakchott,Riyadh,Riyadh,17.99912,-15.9692,prive,Urbain,0.0,FALAH,13901001.0,2.0,1.0,70.0,2.0,0.0,0.0,12.0,0.49,3G,MC3G0216,18.00322222,-15.96741667
2728,14,13-Nouakchott,Riyadh,Riyadh,18.00411,-15.958789999999999,public,Urbain,0.0,GLEIGUIM O/ MOUTALI,13901001.0,9.0,6.0,571.0,10.0,0.0,1.0,2.0,0.29,3G,MR3G0085,18.00633,-15.96016
2729,61,13-Nouakchott,Riyadh,Riyadh,18.01505,-15.94958,public,Urbain,0.0,HAMADENE OULD ELEMINE,13901001.0,8.0,6.0,442.0,9.0,0.0,0.0,2.0,1.02,3G,MR3G0083,18.017367999999998,-15.958956
2730,40,13-Nouakchott,Riyadh,Riyadh,18.010825,-15.97468,prive,Urbain,0.0,HAMED KEBIR,13901001.0,7.0,6.0,94.0,8.0,1.0,0.0,2.0,0.1,3G,MA3G0025,18.011,-15.9756
2731,30,13-Nouakchott,Riyadh,Riyadh,18.02065,-15.9714,prive,Urbain,0.0,HASSAD EL ILM,13901001.0,7.0,6.0,109.0,8.0,1.0,1.0,0.0,0.16,3G,MR3G0082,18.0195,-15.97229
2732,5,13-Nouakchott,Riyadh,Riyadh,17.97741,-15.971420000000002,prive,Urbain,0.0,JAAVAR ESSADEGH,13901001.0,10.0,8.0,202.0,15.0,1.0,1.0,4.0,0.31,3G,MC3G0207,17.979222,-15.969194
2733,12,13-Nouakchott,Riyadh,Riyadh,18.01626,-15.972710000000001,prive,Urbain,0.0,LA PORTE DU SAVOIR,13901001.0,5.0,6.0,93.0,6.0,1.0,1.0,1.0,0.36,3G,MR3G0082,18.0195,-15.97229
2734,43,13-Nouakchott,Riyadh,Riyadh,18.02848,-15.970279999999999,prive,Urbain,0.0,LE SYMBOLE,13901001.0,5.0,6.0,268.0,6.0,1.0,0.0,4.0,0.29,3G,MC3G0211,18.02602778,-15.971325
2735,25,13-Nouakchott,Riyadh,Riyadh,18.00469,-15.974789999999999,public,Urbain,0.0,LIMAM MALICK II,13901001.0,13.0,6.0,408.0,14.0,1.0,1.0,12.0,0.18,3G,MR3G0081,18.0057,-15.9734
2736,75,13-Nouakchott,Riyadh,Riyadh,18.02049,-15.94251,prive,Urbain,0.0,MAINE THAGHAFA,13901001.0,6.0,6.0,103.0,7.0,1.0,1.0,3.0,0.71,3G,MA3G0154,18.02617,-15.94555
2737,45,13-Nouakchott,Riyadh,Riyadh,18.00144,-15.97383,prive,Urbain,0.0,MANAHIL IIM II CE TUHUNDI GANDAL,13901001.0,7.0,6.0,269.0,8.0,1.0,0.0,2.0,0.29,3G,MC3G0208,17.998910000000002,-15.974429999999998
2738,57,13-Nouakchott,Riyadh,Riyadh,18.017229999999998,-15.958420000000002,prive,Urbain,0.0,MECQUA TAL MOUKARAM,13901001.0,6.0,6.0,152.0,7.0,1.0,1.0,2.0,0.06,3G,MR3G0083,18.017367999999998,-15.958956
2739,64,13-Nouakchott,Riyadh,Riyadh,18.00435,-15.969370000000001,prive,Urbain,0.0,MEDOUNE SARR,13901001.0,6.0,6.0,99.0,7.0,1.0,1.0,1.0,0.24,3G,MC3G0216,18.00322222,-15.96741667
2740,32,13-Nouakchott,Riyadh,Riyadh,18.01533,-15.97432,prive,Urbain,0.0,MENAH ILM,13901001.0,13.0,6.0,567.0,14.0,1.0,1.0,8.0,0.3,3G,MC3G0213,18.01275,-15.97506944
2741,50,13-Nouakchott,Riyadh,Riyadh,18.020129999999998,-15.966470000000001,public,Urbain,0.0,MENAHEL EL ILM (EXTENTION )3,13901001.0,3.0,4.0,61.0,4.0,1.0,1.0,2.0,0.4,3G,MC3G0222,18.022920000000003,-15.96402778
2742,2,13-Nouakchott,Riyadh,Riyadh,17.98351,-15.969170000000002,public,Urbain,0.0,MOCTAR O/ DADDAH,13901001.0,8.0,6.0,428.0,9.0,0.0,0.0,1.0,0.33,3G,MC3G0210,17.98631,-15.96822
2743,11,13-Nouakchott,Riyadh,Riyadh,18.00969,-15.97691,prive,Urbain,0.0,MOUBARAKATT,13901001.0,5.0,6.0,105.0,6.0,1.0,1.0,2.0,0.2,3G,MA3G0025,18.011,-15.9756
2744,35,13-Nouakchott,Riyadh,Riyadh,18.02638,-15.971829999999999,prive,Urbain,0.0,MUSLIM HANDS,13901001.0,4.0,5.0,171.0,5.0,0.0,1.0,8.0,0.07,3G,MC3G0211,18.02602778,-15.971325
2745,41,13-Nouakchott,Riyadh,Riyadh,18.01825,-15.97468,prive,Urbain,0.0,NOUKHBETOU EL ASR,13901001.0,7.0,6.0,213.0,8.0,0.0,1.0,6.0,0.29,3G,MR3G0082,18.0195,-15.97229
2746,34,13-Nouakchott,Riyadh,Riyadh,18.00545,-15.97565,prive,Urbain,0.0,NOUR EL ILME,13901001.0,13.0,6.0,349.0,14.0,1.0,1.0,4.0,0.24,3G,MR3G0081,18.0057,-15.9734
2747,10,13-Nouakchott,Riyadh,Riyadh,18.00165,-15.96447,public,Urbain,0.0,OUMAR IBN KHATTAB,13901001.0,8.0,6.0,405.0,9.0,0.0,0.0,8.0,0.36,3G,MC3G0216,18.00322222,-15.96741667
2748,29,13-Nouakchott,Riyadh,Riyadh,17.99417,-15.96941,public,Urbain,0.0,OUSSAMA 2,13901001.0,8.0,6.0,459.0,9.0,1.0,0.0,2.0,0.56,3G,MC3G0212,17.99033056,-15.97286111
2749,53,13-Nouakchott,Riyadh,Riyadh,18.02676,-15.931479999999999,prive,Urbain,0.0,RAHMA,13901001.0,2.0,3.0,46.0,3.0,1.0,0.0,2.0,0.41,3G,MA3G0100,18.03019,-15.930060000000001
2750,42,13-Nouakchott,Riyadh,Riyadh,18.0275,-15.9726,prive,Urbain,0.0,SCIENCE ET SAVOIR,13901001.0,8.0,6.0,193.0,9.0,1.0,0.0,4.0,0.21,3G,MC3G0211,18.02602778,-15.971325
2751,72,13-Nouakchott,Riyadh,Riyadh,18.03269,-15.92405,public,Urbain,0.0,TARHIL 10,13901001.0,8.0,6.0,245.0,9.0,1.0,0.0,1.0,0.69,3G,MA3G0100,18.03019,-15.930060000000001
2752,73,13-Nouakchott,Riyadh,Riyadh,18.030910000000002,-15.931610000000001,public,Urbain,0.0,TARHIL 11,13901001.0,7.0,6.0,210.0,8.0,0.0,0.0,1.0,0.15,3G,MR3G0086,18.03189,-15.930660000000001
2753,71,13-Nouakchott,Riyadh,Riyadh,18.00431,-15.936829999999999,public,Urbain,0.0,TARHIL 12,13901001.0,6.0,6.0,140.0,7.0,1.0,0.0,4.0,0.82,3G,MA3G0134,18.01138,-15.938989999999999
2754,46,13-Nouakchott,Riyadh,Riyadh,18.01569,-15.938460000000001,public,Urbain,0.0,TARHIL 4,13901001.0,7.0,6.0,426.0,8.0,0.0,0.0,2.0,0.43,3G,MR3G0084,18.0127,-15.935870000000001
2755,54,13-Nouakchott,Riyadh,Riyadh,18.02525,-15.945920000000001,public,Urbain,0.0,TARHIL 5,13901001.0,9.0,6.0,314.0,10.0,0.0,0.0,3.0,0.11,3G,MA3G0154,18.02617,-15.94555
2756,56,13-Nouakchott,Riyadh,Riyadh,18.00068,-15.946639999999999,public,Urbain,0.0,TARHIL 6,13901001.0,10.0,6.0,526.0,11.0,1.0,0.0,2.0,1.44,3G,MA3G0134,18.01138,-15.938989999999999
2757,55,13-Nouakchott,Riyadh,Riyadh,18.02976,-15.937660000000001,public,Urbain,0.0,TARHIL 7,13901001.0,8.0,6.0,470.0,9.0,0.0,0.0,2.0,0.78,3G,MR3G0086,18.03189,-15.930660000000001
2758,47,13-Nouakchott,Riyadh,Riyadh,18.01505,-15.94958,public,Urbain,0.0,TARHIL 8,13901001.0,8.0,6.0,399.0,9.0,0.0,0.0,16.0,1.02,3G,MR3G0083,18.017367999999998,-15.958956
2759,48,13-Nouakchott,Riyadh,Riyadh,18.02234,-15.930679999999999,public,Urbain,0.0,TARHIL 8,13901001.0,8.0,6.0,419.0,9.0,1.0,0.0,1.0,0.88,3G,MA3G0100,18.03019,-15.930060000000001
2760,8,13-Nouakchott,Riyadh,Riyadh,17.982879999999998,-15.97291,prive,Urbain,0.0,THIERNO HAMDOURABI N'DIATH,13901001.0,3.0,4.0,68.0,4.0,0.0,0.0,3.0,0.27,2G,MA2G0083,17.983829,-15.975225
2761,13,13-Nouakchott,Riyadh,Riyadh,18.00101,-15.97485,prive,Urbain,0.0,TOUMENNE,13901001.0,6.0,6.0,89.0,7.0,1.0,1.0,0.0,0.24,3G,MC3G0208,17.998910000000002,-15.974429999999998
2762,4,13-Nouakchott,Riyadh,Riyadh,17.97749,-15.96972,prive,Urbain,0.0,YOLY BA,13901001.0,8.0,6.0,84.0,9.0,1.0,0.0,2.0,0.2,3G,MC3G0207,17.979222,-15.969194
2763,36,13-Nouakchott,Sebkha,Sebkha,18.08045,-15.9941,prive,Urbain,0.0,ABOU BEKR FALL,13501001.0,4.0,5.0,93.0,5.0,1.0,0.0,2.0,0.33,3G,MC3G0116,18.07881,-15.99669
2764,4,13-Nouakchott,Sebkha,Sebkha,18.06713,-15.9991,prive,Urbain,0.0,AHMED ZEIDANE,13501001.0,13.0,6.0,440.0,14.0,1.0,0.0,2.0,0.1,3G,MC3G0021,18.06681,-16.000020000000003
2765,8,13-Nouakchott,Sebkha,Sebkha,18.0767,-16.0075,prive,Urbain,0.0,ANNEXE BAB ES SAM,13501001.0,6.0,6.0,49.0,7.0,0.0,1.0,3.0,0.17,3G,MA3G0102,18.07822,-16.00742
2766,76,13-Nouakchott,Sebkha,Sebkha,18.07585,-15.99855,Prive,Urbain,0.0,BABE SALAM,13501001.0,6.0,4.0,150.0,9.0,1.0,1.0,3.0,0.22,3G,MC3G0113,18.07600278,-16.00062778
2767,73,13-Nouakchott,Sebkha,Sebkha,18.07643,-15.994829999999999,Prive,Urbain,0.0,BAMA,13501001.0,6.0,7.0,150.0,14.0,0.0,1.0,2.0,0.12,3G,MC3G0099,18.07654167,-15.99591667
2768,19,13-Nouakchott,Sebkha,Sebkha,18.07599,-15.99262,prive,Urbain,0.0,BAMA,13501001.0,16.0,6.0,770.0,17.0,1.0,1.0,0.0,0.34,3G,MC3G0115,18.07834,-15.99058
2769,82,13-Nouakchott,Sebkha,Sebkha,18.072210000000002,-15.99823,Prive,Urbain,765.0,BMS,13501001.0,7.0,7.0,175.0,19.0,1.0,1.0,4.0,0.38,3G,MA3G0009,18.0708,-16.0015
2770,15,13-Nouakchott,Sebkha,Sebkha,18.075670000000002,-15.99364,public,Urbain,0.0,CAPITAL 12,13501001.0,10.0,6.0,417.0,11.0,0.0,0.0,0.0,0.26,3G,MC3G0099,18.07654167,-15.99591667
2771,16,13-Nouakchott,Sebkha,Sebkha,18.0774,-15.99669,public,Urbain,0.0,CAPITALE 11,13501001.0,13.0,6.0,727.0,14.0,0.0,0.0,8.0,0.13,3G,MC3G0099,18.07654167,-15.99591667
2772,28,13-Nouakchott,Sebkha,Sebkha,18.075789999999998,-15.99199,public,Urbain,0.0,CAPITALE 4,13501001.0,11.0,6.0,444.0,12.0,0.0,0.0,2.0,0.32,3G,MC3G0115,18.07834,-15.99058
2773,26,13-Nouakchott,Sebkha,Sebkha,18.06598,-16.00345,prive,Urbain,0.0,CESTECA,13501001.0,7.0,6.0,126.0,8.0,0.0,1.0,2.0,0.08,3G,MR3G0089,18.065259,-16.003345
2774,27,13-Nouakchott,Sebkha,Sebkha,18.0791,-15.98745,prive,Urbain,0.0,CHEIKH IBRAHIMA NIASS,13501001.0,5.0,6.0,73.0,6.0,1.0,1.0,2.0,0.34,3G,MC3G0115,18.07834,-15.99058
2775,37,13-Nouakchott,Sebkha,Sebkha,18.07758611,-15.98683056,public,Urbain,0.0,CHEIKH MOHAMED EL HAFEZ,13501001.0,9.0,6.0,464.0,10.0,0.0,0.0,1.0,0.38,3G,MC3G0084,18.07461111,-15.98866667
2776,14,13-Nouakchott,Sebkha,Sebkha,18.08141,-16.00164,public,Urbain,0.0,CHEIKH SOULEYMANE BALL,13501001.0,8.0,6.0,399.0,9.0,1.0,0.0,2.0,0.11,3G,MR3G0144,18.082222,-16.002222
2777,74,13-Nouakchott,Sebkha,Sebkha,18.07974,-16.00081,Public,Urbain,1306502.0,COLLEGE SEBKHA 1,13501001.0,15.0,7.0,375.0,24.0,0.0,1.0,5.0,0.31,3G,MR3G0144,18.082222,-16.002222
2778,70,13-Nouakchott,Sebkha,Sebkha,18.06273,-16.00747,Public,Urbain,0.0,COLLEGE SEBKHA 2,13501001.0,8.0,7.0,200.0,16.0,0.0,1.0,3.0,0.41,3G,MC3G0017,18.06631111,-16.00640278
2779,71,13-Nouakchott,Sebkha,Sebkha,18.07922,-15.99129,Prive,Urbain,357.0,CORPS DES ECOLES ZAHARA,13501001.0,9.0,7.0,225.0,22.0,0.0,1.0,4.0,0.12,3G,MC3G0115,18.07834,-15.99058
2780,67,13-Nouakchott,Sebkha,Sebkha,18.071479999999998,-15.994779999999999,Prive,Urbain,0.0,DIAM LY,13501001.0,3.0,4.0,75.0,9.0,1.0,1.0,3.0,0.09,2G,MC2G0184,18.0707,-15.995
2781,33,13-Nouakchott,Sebkha,Sebkha,18.07404,-16.001520000000003,public,Urbain,0.0,ECOLE LE MOUJEIDRI OULD HABAL,13501001.0,7.0,6.0,211.0,8.0,1.0,0.0,0.0,0.05,3G,MR3G0088,18.0745,-16.001361
2782,72,13-Nouakchott,Sebkha,Sebkha,18.07619,-15.98761,Prive,Urbain,0.0,ECOLE PRIVEE ET LA VIE,13501001.0,7.0,7.0,175.0,27.0,0.0,1.0,3.0,0.21,3G,MC3G0084,18.07461111,-15.98866667
2783,10,13-Nouakchott,Sebkha,Sebkha,18.06338,-16.0065,prive,Urbain,0.0,ECOLE THIERNO ABDOULAYE DJIGO,13501001.0,4.0,5.0,37.0,5.0,0.0,1.0,8.0,0.33,3G,MC3G0017,18.06631111,-16.00640278
2784,17,13-Nouakchott,Sebkha,Sebkha,18.07822,-15.98896,prive,Urbain,0.0,ECOLE ZAHRA,13501001.0,7.0,6.0,343.0,8.0,0.0,1.0,0.0,0.17,3G,MC3G0115,18.07834,-15.99058
2785,34,13-Nouakchott,Sebkha,Sebkha,18.07457,-15.98567,prive,Urbain,0.0,EL BOUCHRA,13501001.0,7.0,6.0,176.0,8.0,1.0,1.0,4.0,0.29,3G,MA3G0011,18.0734,-15.9881
2786,30,13-Nouakchott,Sebkha,Sebkha,18.07855,-15.988,prive,Urbain,0.0,EL HADJ MALICK SY,13501001.0,2.0,3.0,52.0,3.0,0.0,1.0,0.0,0.27,3G,MC3G0115,18.07834,-15.99058
2787,32,13-Nouakchott,Sebkha,Sebkha,18.06866,-15.995610000000001,prive,Urbain,0.0,El Hadj Moktar kelly Annexe,13501001.0,14.0,6.0,540.0,15.0,0.0,0.0,8.0,0.07,3G,MR3G0090,18.069329999999997,-15.9956
2788,79,13-Nouakchott,Sebkha,Sebkha,18.06875,-15.997079999999999,Prive,Urbain,0.0,ELHADJ MOKTAR KELLY,13501001.0,19.0,7.0,475.0,33.0,0.0,1.0,5.0,0.17,3G,MR3G0090,18.069329999999997,-15.9956
2789,1,13-Nouakchott,Sebkha,Sebkha,18.07043611,-15.99351111,prive,Urbain,0.0,GATAGA,13501001.0,3.0,4.0,55.0,4.0,0.0,0.0,2.0,0.15,3G,MA3G0150,18.069958,-15.994826999999999
2790,23,13-Nouakchott,Sebkha,Sebkha,18.082,-15.9917,prive,Urbain,0.0,LE PROGRES (TAGHADOUMY),13501001.0,5.0,6.0,77.0,6.0,1.0,1.0,12.0,0.35,3G,MC3G0036,18.08472222,-15.99336111
2791,83,13-Nouakchott,Sebkha,Sebkha,18.08201,-15.9917,Prive,Urbain,476.0,LE PROGRES(TAGHADOUM),13501001.0,1.0,2.0,25.0,4.0,1.0,1.0,2.0,0.35,3G,MC3G0036,18.08472222,-15.99336111
2792,7,13-Nouakchott,Sebkha,Sebkha,18.07615,-16.00434,prive,Urbain,0.0,LE SALUT,13501001.0,3.0,4.0,78.0,4.0,0.0,1.0,1.0,0.23,3G,MC3G0022,18.07441,-16.00318
2793,29,13-Nouakchott,Sebkha,Sebkha,18.07624,-15.98763,prive,Urbain,0.0,L'ECOLE ET LA VIE,13501001.0,6.0,6.0,108.0,7.0,0.0,1.0,2.0,0.21,3G,MC3G0084,18.07461111,-15.98866667
2794,75,13-Nouakchott,Sebkha,Sebkha,18.075120000000002,-15.99915,Public,Urbain,1306501.0,LYCEE SEBKHA,13501001.0,14.0,7.0,350.0,32.0,1.0,1.0,0.0,0.18,3G,MC3G0113,18.07600278,-16.00062778
2795,77,13-Nouakchott,Sebkha,Sebkha,18.07537,-16.00224,Prive,Urbain,817.0,MA DEMBA DIOP,13501001.0,4.0,5.0,100.0,10.0,1.0,1.0,2.0,0.13,3G,MR3G0088,18.0745,-16.001361
2796,78,13-Nouakchott,Sebkha,Sebkha,18.06774,-16.00467,Prive,Urbain,1817.0,MA DEMBA DIOP,13501001.0,4.0,4.0,100.0,8.0,0.0,1.0,4.0,0.24,3G,MC3G0017,18.06631111,-16.00640278
2797,3,13-Nouakchott,Sebkha,Sebkha,18.06774,-16.00469,prive,Urbain,0.0,MA DEMBA DIOP,13501001.0,5.0,6.0,6.0,6.0,0.0,1.0,8.0,0.24,3G,MC3G0017,18.06631111,-16.00640278
2798,5,13-Nouakchott,Sebkha,Sebkha,18.075,-16.001360000000002,prive,Urbain,0.0,MA DEMBA DIOP,13501001.0,11.0,6.0,394.0,12.0,1.0,1.0,4.0,0.06,3G,MR3G0088,18.0745,-16.001361
2799,11,13-Nouakchott,Sebkha,Sebkha,18.06651,-16.00757,public,Urbain,0.0,MOCTAR HAMIDOUN,13501001.0,11.0,6.0,584.0,12.0,0.0,0.0,2.0,0.13,3G,MC3G0017,18.06631111,-16.00640278
2800,38,13-Nouakchott,Sebkha,Sebkha,18.06162,-16.00558,prive,Urbain,0.0,PETIT BA,13501001.0,5.0,6.0,127.0,6.0,1.0,0.0,2.0,0.24,3G,MC3G0018,18.061444,-16.0033055
2801,68,13-Nouakchott,Sebkha,Sebkha,18.073729999999998,-16.0071,Prive,Urbain,622.0,PYRAMIDE,13501001.0,12.0,4.0,300.0,9.0,0.0,1.0,6.0,0.31,3G,MR3G0146,18.072661,-16.00978
2802,6,13-Nouakchott,Sebkha,Sebkha,18.07366,-16.00701,prive,Urbain,0.0,PYRAMIDE,13501001.0,7.0,6.0,161.0,8.0,0.0,1.0,16.0,0.31,3G,MR3G0146,18.072661,-16.00978
2803,12,13-Nouakchott,Sebkha,Sebkha,18.07395,-16.00129,public,Urbain,0.0,SALEH,13501001.0,6.0,6.0,199.0,7.0,1.0,0.0,1.0,0.06,3G,MR3G0088,18.0745,-16.001361
2804,81,13-Nouakchott,Sebkha,Sebkha,18.06506,-16.00796,Prive,Urbain,424.0,TEMPLE DU SAVOIR,13501001.0,11.0,13.0,131.0,24.0,1.0,1.0,4.0,0.22,3G,MC3G0017,18.06631111,-16.00640278
2805,31,13-Nouakchott,Sebkha,Sebkha,18.07232,-16.00125,prive,Urbain,0.0,THIERNO ABDOULAYE DJIGO,13501001.0,8.0,6.0,267.0,9.0,0.0,0.0,12.0,0.17,3G,MA3G0009,18.0708,-16.0015
2806,69,13-Nouakchott,Sebkha,Sebkha,18.07232,-16.00125,Prive,Urbain,897.0,THIERNO ABDOULLAHI DJIGO,13501001.0,6.0,7.0,150.0,24.0,0.0,1.0,2.0,0.17,3G,MA3G0009,18.0708,-16.0015
2807,80,13-Nouakchott,Sebkha,Sebkha,18.06842,-15.998529999999999,Prive,Urbain,0.0,VOWZ BAMBA,13501001.0,16.0,7.0,400.0,28.0,0.0,1.0,8.0,0.24,3G,MC3G0021,18.06681,-16.000020000000003
2808,18,13-Nouakchott,Sebkha,Sebkha,18.073620000000002,-16.00214,prive,Urbain,0.0,WAGADOU,13501001.0,6.0,6.0,164.0,7.0,0.0,0.0,0.0,0.13,3G,MR3G0088,18.0745,-16.001361
2809,9,13-Nouakchott,Sebkha,Sebkha,18.071170000000002,-16.000429999999998,prive,Urbain,0.0,WALATY BAOBAB,13501001.0,17.0,6.0,549.0,18.0,0.0,1.0,2.0,0.12,3G,MA3G0009,18.0708,-16.0015
2810,50,13-Nouakchott,Teyarett,Teyarett,18.13922,-15.92499,public,Urbain,0.0,ABDERRAHMANE IBN AWF,13101001.0,9.0,6.0,349.0,10.0,1.0,0.0,2.0,0.14,3G,MC3G0039,18.14042778,-15.92478611
2811,12,13-Nouakchott,Teyarett,Teyarett,18.11894,-15.937999999999999,public,Urbain,0.0,ABEH1,13101001.0,11.0,6.0,334.0,12.0,1.0,0.0,1.0,0.19,3G,MC3G0050,18.11753,-15.93706
2812,14,13-Nouakchott,Teyarett,Teyarett,18.11875,-15.937829999999998,public,Urbain,0.0,ABEI2,13101001.0,9.0,6.0,302.0,10.0,1.0,0.0,2.0,0.16,3G,MC3G0050,18.11753,-15.93706
2813,4,13-Nouakchott,Teyarett,Teyarett,18.12855,-15.943470000000001,prive,Urbain,0.0,ABOU DOUJANA,13101001.0,7.0,6.0,92.0,8.0,1.0,1.0,2.0,0.18,3G,MC3G0102,18.12998611,-15.94267222
2814,182,13-Nouakchott,Teyarett,Teyarett,18.11883,-15.94568,Prive,Urbain,0.0,CHEHADA,13101001.0,9.0,10.0,218.0,15.0,1.0,1.0,2.0,0.37,3G,MC3G0131,18.12133,-15.94335
2815,32,13-Nouakchott,Teyarett,Teyarett,18.13264,-15.93016,public,Urbain,0.0,CHEIKH MED EL MAMI1,13101001.0,10.0,6.0,285.0,11.0,0.0,0.0,8.0,0.22,3G,MR3G0147,18.1318,-15.9283
2816,183,13-Nouakchott,Teyarett,Teyarett,18.1265,-15.9367,Public,Urbain,1308502.0,COLLEGE TEYARETT1,13101001.0,17.0,7.0,425.0,32.0,0.0,0.0,6.0,0.26,3G,MC3G0079,18.12578,-15.939
2817,44,13-Nouakchott,Teyarett,Teyarett,18.12579,-15.937170000000002,public,Urbain,0.0,ECOLE FONDAMENTALE ETHMANE,13101001.0,10.0,6.0,269.0,11.0,0.0,0.0,2.0,0.19,3G,MC3G0079,18.12578,-15.939
2818,10,13-Nouakchott,Teyarett,Teyarett,18.14651,-15.93401,public,Urbain,0.0,ECOLE TALHA IBN OUBEIDILAH,13101001.0,8.0,6.0,242.0,9.0,1.0,0.0,8.0,0.31,3G,MR3G0121,18.1437611,-15.934577800000001
2819,13,13-Nouakchott,Teyarett,Teyarett,18.12388,-15.9356,prive,Urbain,0.0,EL ECHRAF,13101001.0,5.0,6.0,91.0,6.0,1.0,1.0,0.0,0.24,3G,MC3G0051,18.12283611,-15.93366389
2820,26,13-Nouakchott,Teyarett,Teyarett,18.13577,-15.92914,prive,Urbain,0.0,EL EHALY,13101001.0,5.0,6.0,76.0,6.0,1.0,0.0,2.0,0.28,3G,MC3G0040,18.13814,-15.928320000000001
2821,174,13-Nouakchott,Teyarett,Teyarett,18.127779999999998,-15.937529999999999,Prive,Urbain,1235.0,EL GHOUDWA,13101001.0,15.0,10.0,345.0,16.0,1.0,1.0,2.0,0.27,3G,MC3G0079,18.12578,-15.939
2822,176,13-Nouakchott,Teyarett,Teyarett,18.13733,-15.9289,Prive,Urbain,1202.0,EL HANY,13101001.0,2.0,3.0,50.0,7.0,1.0,1.0,1.0,0.11,3G,MC3G0040,18.13814,-15.928320000000001
2823,1,13-Nouakchott,Teyarett,Teyarett,18.12027,-15.94939,prive,Urbain,0.0,EL IKHLASS,13101001.0,8.0,6.0,214.0,9.0,1.0,0.0,2.0,0.33,3G,MA3G0145,18.118966,-15.952221
2824,17,13-Nouakchott,Teyarett,Teyarett,18.14398,-15.93471,prive,Urbain,0.0,EL ILM TAWASSOUL,13101001.0,4.0,5.0,41.0,5.0,1.0,0.0,0.0,0.03,3G,MR3G0121,18.1437611,-15.934577800000001
2825,189,13-Nouakchott,Teyarett,Teyarett,18.11938,-15.946660000000001,Prive,Urbain,806.0,EL KABASSE,13101001.0,21.0,7.0,525.0,60.0,1.0,1.0,7.0,0.41,3G,MC3G0131,18.12133,-15.94335
2826,29,13-Nouakchott,Teyarett,Teyarett,18.13477,-15.93939,prive,Urbain,0.0,EL MEJD,13101001.0,5.0,6.0,50.0,6.0,1.0,0.0,2.0,0.35,3G,MC3G0003,18.13795833,-15.93948611
2827,185,13-Nouakchott,Teyarett,Teyarett,18.12525,-15.94321,Prive,Urbain,189.0,EL MENHEL EL JEDID,13101001.0,12.0,11.0,257.0,18.0,1.0,1.0,2.0,0.4,3G,MR3G0125,18.12575,-15.9395
2828,15,13-Nouakchott,Teyarett,Teyarett,18.122529999999998,-15.937170000000002,public,Urbain,0.0,EL VAOZ,13101001.0,6.0,6.0,122.0,7.0,1.0,1.0,0.0,0.31,3G,MC3G0090,18.120379999999997,-15.939060000000001
2829,175,13-Nouakchott,Teyarett,Teyarett,18.11875,-15.93981444,Prive,Urbain,478.0,EL VOWZ,13101001.0,12.0,13.0,378.0,21.0,1.0,1.0,2.0,0.06,3G,MR3G0129,18.11925,-15.94007
2830,37,13-Nouakchott,Teyarett,Teyarett,18.1323,-15.939520000000002,prive,Urbain,0.0,ENESS IBN MALICK,13101001.0,5.0,6.0,98.0,6.0,1.0,1.0,1.0,0.31,3G,MC3G0165,18.13136111,-15.93680556
2831,171,13-Nouakchott,Teyarett,Teyarett,18.140710000000002,-15.934170000000002,Prive,Urbain,698.0,IKRA,13101001.0,10.0,7.0,250.0,29.0,1.0,1.0,2.0,0.18,3G,MA3G0098,18.14108,-15.93255
2832,21,13-Nouakchott,Teyarett,Teyarett,18.148770000000003,-15.9139,public,Urbain,0.0,IMAM BOUKHARY,13101001.0,3.0,4.0,111.0,4.0,1.0,0.0,12.0,1.4,3G,MA3G0133,18.137746,-15.907564
2833,19,13-Nouakchott,Teyarett,Teyarett,18.140710000000002,-15.934170000000002,prive,Urbain,0.0,IQRA,13101001.0,11.0,6.0,196.0,12.0,1.0,1.0,0.0,0.18,3G,MA3G0098,18.14108,-15.93255
2834,181,13-Nouakchott,Teyarett,Teyarett,18.12678,-15.93849,Public,Urbain,1308501.0,LYCEE TEYARETT2,13101001.0,25.0,7.0,625.0,35.0,1.0,1.0,6.0,0.12,3G,MC3G0079,18.12578,-15.939
2835,179,13-Nouakchott,Teyarett,Teyarett,18.13178,-15.935279999999999,Prive,Urbain,13080124.0,MINBAR EL ILM,13101001.0,15.0,11.0,308.0,22.0,1.0,1.0,2.0,0.16,3G,MR3G0128,18.13145,-15.936720000000001
2836,180,13-Nouakchott,Teyarett,Teyarett,18.1392,-15.92735,Prive,Urbain,0.0,NOUR EL HAYAT,13101001.0,1.0,4.0,25.0,8.0,1.0,0.0,2.0,0.16,3G,MC3G0040,18.13814,-15.928320000000001
2837,38,13-Nouakchott,Teyarett,Teyarett,18.1392,-15.92736,prive,Urbain,0.0,NOUR EL HAYAT,13101001.0,13.0,6.0,310.0,14.0,1.0,0.0,2.0,0.16,3G,MC3G0040,18.13814,-15.928320000000001
2838,186,13-Nouakchott,Teyarett,Teyarett,18.12741,-15.942179999999999,Prive,Urbain,0.0,ROUMOUZ EL GHAD,13101001.0,4.0,4.0,100.0,8.0,1.0,1.0,3.0,0.29,3G,MC3G0102,18.12998611,-15.94267222
2839,42,13-Nouakchott,Teyarett,Teyarett,18.13308,-15.93486,public,Urbain,0.0,SAADA I,13101001.0,15.0,6.0,391.0,16.0,1.0,0.0,4.0,0.27,3G,MR3G0128,18.13145,-15.936720000000001
2840,188,13-Nouakchott,Teyarett,Teyarett,18.12367,-15.93896,Prive,Urbain,567.0,SALAH DINE,13101001.0,13.0,7.0,325.0,40.0,1.0,1.0,2.0,0.23,3G,MC3G0079,18.12578,-15.939
2841,39,13-Nouakchott,Teyarett,Teyarett,18.13044,-15.93211,public,Urbain,0.0,TEWVIGH II,13101001.0,9.0,6.0,210.0,10.0,0.0,0.0,2.0,0.3,3G,MA3G0023,18.1281,-15.9335
2842,33,13-Nouakchott,Teyarett,Teyarett,18.13815,-15.92486,public,Urbain,0.0,TEWVIGT 1,13101001.0,14.0,6.0,10.0,15.0,1.0,0.0,0.0,0.25,3G,MC3G0039,18.14042778,-15.92478611
2843,177,13-Nouakchott,Teyarett,Teyarett,18.14059,-15.93025,Public,Urbain,0.0,TEYARETT2,13101001.0,12.0,4.0,300.0,8.0,0.0,0.0,10.0,0.25,3G,MA3G0098,18.14108,-15.93255
2844,7,13-Nouakchott,Teyarett,Teyarett,18.12366,-15.946729999999999,prive,Urbain,0.0,THIERNO MOUNTAGHA TALL DE TEYARETT,13101001.0,10.0,6.0,109.0,11.0,1.0,1.0,1.0,0.01,3G,MR3G0124,18.123613,-15.94674
2845,190,13-Nouakchott,Teyarett,Teyarett,18.12366,-15.946729999999999,Prive,Urbain,246.0,THIERNO MOUNTAGHA TALL DE TEYARETT2,13101001.0,1.0,2.0,25.0,5.0,1.0,1.0,2.0,0.01,3G,MR3G0124,18.123613,-15.94674
2846,27,13-Nouakchott,Teyarett,Teyarett,18.12979,-15.92927,prive,Urbain,0.0,TOUNGA,13101001.0,6.0,6.0,118.0,7.0,1.0,1.0,2.0,0.15,3G,MC3G0041,18.1285,-15.92968
2847,20,13-Nouakchott,Teyarett,Teyarett,18.124589999999998,-15.93794,prive,Urbain,0.0,TUNAKHAN,13101001.0,9.0,6.0,182.0,10.0,1.0,1.0,0.0,0.17,3G,MC3G0079,18.12578,-15.939
2848,184,13-Nouakchott,Teyarett,Teyarett,18.12494,-15.93834,Prive,Urbain,393.0,ZEM ZEM,13101001.0,45.0,7.0,1125.0,72.0,1.0,1.0,18.0,0.12,3G,MC3G0079,18.12578,-15.939
2849,47,13-Nouakchott,Teyarett,Teyarett,18.12527,-15.936470000000002,prive,Urbain,0.0,ZEM ZEM,13101001.0,26.0,6.0,962.0,27.0,1.0,1.0,16.0,0.27,3G,MC3G0079,18.12578,-15.939
2850,207,13-Nouakchott,Toujounine,Toujounine,18.07405,-15.92138,Prive,Urbain,0.0,Medina,13301001.0,18.0,7.0,450.0,18.0,1.0,1.0,6.0,0.19,3G,MC3G0205,18.07238,-15.9217
2851,26,13-Nouakchott,Toujounine,Toujounine,18.040570000000002,-15.946679999999999,public,Urbain,0.0,ABDALLAH IBN /ABBAS,13301001.0,9.0,6.0,371.0,10.0,0.0,0.0,2.0,0.26,3G,MC3G0202,18.0386,-15.947920000000002
2852,55,13-Nouakchott,Toujounine,Toujounine,18.05807,-15.93847,public,Urbain,0.0,AHMED O/ LAHBIB,13301001.0,14.0,6.0,400.0,15.0,0.0,0.0,2.0,0.44,3G,MR3G0132,18.061988,-15.938385
2853,47,13-Nouakchott,Toujounine,Toujounine,18.07151,-15.9187,prive,Urbain,0.0,AL VOURGHANE,13301001.0,9.0,6.0,58.0,10.0,1.0,0.0,16.0,0.19,3G,MR3G0135,18.069861,-15.918354
2854,3,13-Nouakchott,Toujounine,Toujounine,18.07605,-15.90041,public,Urbain,0.0,ALY IBN ABOU TALEB,13301001.0,14.0,6.0,519.0,15.0,0.0,0.0,8.0,0.11,3G,MA3G0147,18.076066,-15.901463
2855,12,13-Nouakchott,Toujounine,Toujounine,18.06646,-15.93495,public,Urbain,0.0,AMAR IBN YASSER (FILLE),13301001.0,13.0,6.0,367.0,14.0,0.0,0.0,1.0,0.46,3G,MC3G0176,18.06608333,-15.9306
2856,22,13-Nouakchott,Toujounine,Toujounine,18.05603,-15.93004,prive,Urbain,0.0,BEDR TALIMEYA,13301001.0,4.0,5.0,65.0,5.0,1.0,0.0,9.0,0.45,3G,MA3G0158,18.05989,-15.92874
2857,57,13-Nouakchott,Toujounine,Toujounine,18.065360000000002,-15.93626,public,Urbain,0.0,BEYANE 2,13301001.0,8.0,6.0,103.0,9.0,1.0,1.0,2.0,0.43,3G,MC3G0199,18.06208056,-15.93840833
2858,215,13-Nouakchott,Toujounine,Toujounine,18.065360000000002,-15.9362,Prive,Urbain,423252.0,BEYANE II,13301001.0,10.0,7.0,250.0,14.0,1.0,1.0,3.0,0.43,3G,MC3G0199,18.06208056,-15.93840833
2859,197,13-Nouakchott,Toujounine,Toujounine,18.07284,-15.9042,Prive,Urbain,0.0,BILAL CHINGUITTY,13301001.0,6.0,8.0,162.0,11.0,1.0,1.0,6.0,0.4,3G,MC3G0223,18.07083333,-15.9073
2860,56,13-Nouakchott,Toujounine,Toujounine,18.072670000000002,-15.921879999999998,public,Urbain,0.0,BOUHDIDA,13301001.0,24.0,6.0,769.0,25.0,1.0,0.0,2.0,0.04,3G,MC3G0205,18.07238,-15.9217
2861,60,13-Nouakchott,Toujounine,Toujounine,18.06168,-15.929529999999998,public,Urbain,0.0,CHEIKH  MED LEMINE,13301001.0,8.0,6.0,356.0,9.0,0.0,0.0,8.0,0.22,3G,MA3G0158,18.05989,-15.92874
2862,21,13-Nouakchott,Toujounine,Toujounine,18.056160000000002,-15.87615,public,Urbain,0.0,cheikh el mahfoudh,13301001.0,3.0,4.0,154.0,4.0,0.0,0.0,12.0,1.93,3G,MR3G0138,18.065236,-15.891754
2863,19,13-Nouakchott,Toujounine,Toujounine,18.06774,-15.897089999999999,public,Urbain,0.0,CHEIKH MALAININE (ECOLE DE FILLE ),13301001.0,11.0,6.0,412.0,12.0,0.0,0.0,0.0,0.51,3G,MC3G0198,18.069770000000002,-15.90145
2864,28,13-Nouakchott,Toujounine,Toujounine,18.03813,-15.9373,prive,Urbain,0.0,CHEIKH MOHAMED VADEL,13301001.0,5.0,6.0,108.0,6.0,0.0,0.0,2.0,0.66,3G,MC3G0179,18.042327800000002,-15.941722199999997
2865,36,13-Nouakchott,Toujounine,Toujounine,18.04969,-15.94319,public,Urbain,0.0,CHEIKH TOURAD,13301001.0,15.0,6.0,615.0,16.0,0.0,0.0,2.0,0.49,3G,MC3G0201,18.04622222,-15.94608333
2866,1,13-Nouakchott,Toujounine,Toujounine,18.07317,-15.90729,public,Urbain,0.0,CHERIF HAMED,13301001.0,11.0,6.0,338.0,12.0,1.0,0.0,2.0,0.26,3G,MC3G0223,18.07083333,-15.9073
2867,49,13-Nouakchott,Toujounine,Toujounine,18.071620000000003,-15.918439999999999,prive,Urbain,0.0,CHINGUITI RAJA,13301001.0,5.0,6.0,234.0,6.0,1.0,0.0,6.0,0.2,3G,MR3G0135,18.069861,-15.918354
2868,209,13-Nouakchott,Toujounine,Toujounine,18.071620000000003,-15.918439999999999,Prive,Urbain,0.0,CHINGUITTI RAJA,13301001.0,3.0,5.0,91.0,11.0,1.0,1.0,1.0,0.2,3G,MR3G0135,18.069861,-15.918354
2869,65,13-Nouakchott,Toujounine,Toujounine,18.06466,-15.92131,prive,Urbain,0.0,CHINGUITY,13301001.0,5.0,6.0,117.0,6.0,1.0,0.0,6.0,0.66,3G,MR3G0135,18.069861,-15.918354
2870,195,13-Nouakchott,Toujounine,Toujounine,18.07723,-15.93389,Prive,Urbain,0.0,COLLEGE TOUJOUNINE 2,13301001.0,12.0,7.0,300.0,23.0,1.0,0.0,2.0,0.37,3G,MC3G0180,18.07436667,-15.93570278
2871,198,13-Nouakchott,Toujounine,Toujounine,18.06319,-15.8989,Prive,Urbain,1309504.0,COLLEGE TOUJOUNINE 3,13301001.0,9.0,7.0,225.0,20.0,0.0,1.0,0.0,0.71,3G,MA3G0148,18.064519,-15.89233
2872,219,13-Nouakchott,Toujounine,Toujounine,18.04224,-15.946620000000001,Prive,Urbain,0.0,COLLEGE TOUJOUNINE 5,13301001.0,17.0,7.0,425.0,34.0,0.0,1.0,10.0,0.14,3G,MR3G0133,18.042733,-15.945437
2873,222,13-Nouakchott,Toujounine,Toujounine,18.04583,-15.930779999999999,Prive,Urbain,1408952.0,COMLEX ESPASE LIBRE,13301001.0,7.0,3.0,175.0,6.0,1.0,1.0,2.0,1.19,3G,MA3G0001,18.0535,-15.9386
2874,44,13-Nouakchott,Toujounine,Toujounine,18.07508,-15.91055,prive,Urbain,0.0,COMPLEX THOURAYA,13301001.0,3.0,4.0,42.0,4.0,1.0,0.0,2.0,0.24,3G,MR3G0137,18.073248,-15.911732999999998
2875,210,13-Nouakchott,Toujounine,Toujounine,18.07102,-15.92668,Prive,Urbain,0.0,COMPLEXE EL EMJALD,13301001.0,28.0,13.0,659.0,42.0,1.0,1.0,2.0,0.2,3G,MC3G0175,18.06974,-15.927999999999999
2876,63,13-Nouakchott,Toujounine,Toujounine,18.04583,-15.930779999999999,prive,Urbain,0.0,COMPLEXE ESPASE LIBRE,13301001.0,4.0,5.0,59.0,5.0,0.0,1.0,2.0,1.19,3G,MA3G0001,18.0535,-15.9386
2877,214,13-Nouakchott,Toujounine,Toujounine,18.07122,-15.935089999999999,Prive,Urbain,0.0,DAR EL MAARIF,13301001.0,6.0,7.0,150.0,14.0,1.0,0.0,3.0,0.3,3G,MA3G0160,18.073087,-15.93714
2878,221,13-Nouakchott,Toujounine,Toujounine,18.044929999999997,-15.9294,Prive,Urbain,0.0,ECOLE ECHAVI,13301001.0,6.0,3.0,150.0,6.0,1.0,1.0,2.0,1.33,3G,MC3G0179,18.042327800000002,-15.941722199999997
2879,66,13-Nouakchott,Toujounine,Toujounine,18.044929999999997,-15.9294,prive,Urbain,0.0,ECOLE EL CHAVI,13301001.0,5.0,6.0,139.0,6.0,0.0,0.0,1.0,1.33,3G,MC3G0179,18.042327800000002,-15.941722199999997
2880,51,13-Nouakchott,Toujounine,Toujounine,18.07046,-15.927420000000001,prive,Urbain,0.0,ECOLE EL MOUHAMEDIYA,13301001.0,7.0,6.0,126.0,8.0,1.0,1.0,2.0,0.1,3G,MC3G0175,18.06974,-15.927999999999999
2881,206,13-Nouakchott,Toujounine,Toujounine,18.07046,-15.927420000000001,Prive,Urbain,0.0,ECOLE ELMOUHAMEDIYE,13301001.0,8.0,7.0,200.0,22.0,1.0,1.0,3.0,0.1,3G,MC3G0175,18.06974,-15.927999999999999
2882,64,13-Nouakchott,Toujounine,Toujounine,18.03945,-15.9255,prive,Urbain,0.0,ECOLE L'EKBEIDE,13301001.0,8.0,6.0,282.0,9.0,0.0,0.0,1.0,1.0,3G,MR3G0086,18.03189,-15.930660000000001
2883,52,13-Nouakchott,Toujounine,Toujounine,18.0713,-15.93495,prive,Urbain,0.0,ECOLE PRIVEE DAR EL MARIF,13301001.0,9.0,6.0,202.0,10.0,0.0,0.0,3.0,0.31,3G,MA3G0160,18.073087,-15.93714
2884,6,13-Nouakchott,Toujounine,Toujounine,18.07489,-15.89911,prive,Urbain,0.0,EKTISSAB MAAREF,13301001.0,3.0,4.0,36.0,4.0,0.0,0.0,16.0,0.28,3G,MA3G0147,18.076066,-15.901463
2885,42,13-Nouakchott,Toujounine,Toujounine,18.07239,-15.91194,prive,Urbain,0.0,EL AMANA,13301001.0,11.0,6.0,112.0,12.0,1.0,0.0,4.0,0.1,3G,MR3G0137,18.073248,-15.911732999999998
2886,196,13-Nouakchott,Toujounine,Toujounine,18.075120000000002,-15.90054,Prive,Urbain,0.0,EL ASSALA,13301001.0,5.0,5.0,125.0,10.0,1.0,1.0,1.0,0.14,3G,MA3G0147,18.076066,-15.901463
2887,204,13-Nouakchott,Toujounine,Toujounine,18.069570000000002,-15.90264,Prive,Urbain,820.0,EL DHIYAFA,13301001.0,15.0,13.0,311.0,46.0,1.0,1.0,0.0,0.13,3G,MR3G0136,18.069765,-15.9014717
2888,2,13-Nouakchott,Toujounine,Toujounine,18.072789999999998,-15.90731,public,Urbain,0.0,EL GHAD,13301001.0,15.0,6.0,363.0,16.0,1.0,0.0,1.0,0.22,3G,MC3G0223,18.07083333,-15.9073
2889,31,13-Nouakchott,Toujounine,Toujounine,18.06201,-15.889660000000001,public,Urbain,0.0,EL HAJ O/ VAHVOU,13301001.0,13.0,6.0,460.0,14.0,0.0,0.0,12.0,0.4,3G,MA3G0148,18.064519,-15.89233
2890,217,13-Nouakchott,Toujounine,Toujounine,18.06021,-15.9364,Prive,Urbain,0.0,EL ISLAH ESSEDID,13301001.0,12.0,7.0,300.0,20.0,1.0,1.0,6.0,0.29,3G,MR3G0132,18.061988,-15.938385
2891,61,13-Nouakchott,Toujounine,Toujounine,18.06021,-15.9364,prive,Urbain,0.0,EL ISLAH SEDID,13301001.0,14.0,6.0,431.0,15.0,1.0,1.0,2.0,0.29,3G,MR3G0132,18.061988,-15.938385
2892,218,13-Nouakchott,Toujounine,Toujounine,18.04973,-15.940620000000001,Prive,Urbain,0.0,EL MENARA EL HADITHA,13301001.0,6.0,4.0,150.0,9.0,1.0,1.0,1.0,0.47,3G,MA3G0001,18.0535,-15.9386
2893,39,13-Nouakchott,Toujounine,Toujounine,18.04973,-15.940679999999999,prive,Urbain,0.0,EL MENARA EL HADITHA,13301001.0,9.0,6.0,112.0,10.0,1.0,1.0,2.0,0.47,3G,MA3G0001,18.0535,-15.9386
2894,216,13-Nouakchott,Toujounine,Toujounine,18.06927,-15.93534,Prive,Urbain,0.0,EL MENHEY,13301001.0,9.0,3.0,225.0,7.0,1.0,0.0,2.0,0.46,3G,MR3G0130,18.069662,-15.930966
2895,200,13-Nouakchott,Toujounine,Toujounine,18.07284,-15.90787,Prive,Urbain,0.0,EL MEWHID EL JEDIDA,13301001.0,18.0,13.0,489.0,34.0,1.0,1.0,2.0,0.23,3G,MC3G0223,18.07083333,-15.9073
2896,220,13-Nouakchott,Toujounine,Toujounine,18.06792,-15.906989999999999,Prive,Urbain,0.0,EL MOUSTA GHBEL EL WAID,13301001.0,9.0,7.0,225.0,14.0,1.0,1.0,2.0,0.16,3G,MA3G0024,18.0693,-15.9067
2897,29,13-Nouakchott,Toujounine,Toujounine,18.06792,-15.906989999999999,prive,Urbain,0.0,EL MOUSTAGHBEL EL WAED,13301001.0,6.0,6.0,69.0,7.0,1.0,0.0,2.0,0.16,3G,MA3G0024,18.0693,-15.9067
2898,33,13-Nouakchott,Toujounine,Toujounine,18.054660000000002,-15.90034,prive,Urbain,0.0,EL WASSILA,13301001.0,5.0,6.0,227.0,6.0,0.0,0.0,0.0,0.83,3G,MA3G0115,18.04749,-15.89814
2899,203,13-Nouakchott,Toujounine,Toujounine,18.07239,-15.91194,Prive,Urbain,0.0,ELLE AMANA,13301001.0,2.0,3.0,50.0,7.0,1.0,1.0,2.0,0.1,3G,MR3G0137,18.073248,-15.911732999999998
2900,201,13-Nouakchott,Toujounine,Toujounine,18.07093,-15.910110000000001,Prive,Urbain,0.0,EMEL ET TAKADOUM,13301001.0,15.0,10.0,303.0,20.0,1.0,1.0,2.0,0.3,3G,MC3G0223,18.07083333,-15.9073
2901,18,13-Nouakchott,Toujounine,Toujounine,18.07522,-15.91915,prive,Urbain,0.0,ENJAH WE TEMEYOUZ,13301001.0,2.0,3.0,36.0,3.0,1.0,0.0,0.0,0.42,3G,MC3G0205,18.07238,-15.9217
2902,13,13-Nouakchott,Toujounine,Toujounine,18.06646,-15.93495,public,Urbain,0.0,GHALY OULD MOKTAR VALE (GARCON),13301001.0,11.0,6.0,365.0,12.0,1.0,0.0,0.0,0.46,3G,MC3G0176,18.06608333,-15.9306
2903,70,13-Nouakchott,Toujounine,Toujounine,18.07686,-15.933710000000001,prive,Urbain,0.0,GHOUREYCHE,13301001.0,6.0,6.0,87.0,7.0,1.0,1.0,1.0,0.35,3G,MC3G0180,18.07436667,-15.93570278
2904,20,13-Nouakchott,Toujounine,Toujounine,18.05885,-15.85569,public,Urbain,0.0,IBN KHALDOUM,13301001.0,7.0,6.0,285.0,8.0,1.0,1.0,0.0,0.23,2G,MA2G0032,18.056782000000002,-15.855692999999999
2905,212,13-Nouakchott,Toujounine,Toujounine,18.044810000000002,-15.94335,Prive,Urbain,0.0,ICHRAGH,13301001.0,9.0,2.0,225.0,5.0,1.0,1.0,2.0,0.32,3G,MR3G0133,18.042733,-15.945437
2906,58,13-Nouakchott,Toujounine,Toujounine,18.05698,-15.93716,public,Urbain,0.0,ICHRAGH,13301001.0,7.0,6.0,154.0,8.0,1.0,1.0,2.0,0.42,3G,MC3G0200,18.05384,-15.93929
2907,24,13-Nouakchott,Toujounine,Toujounine,18.07177,-15.932670000000002,public,Urbain,0.0,JAVAR,13301001.0,25.0,6.0,760.0,26.0,1.0,0.0,2.0,0.3,3G,MR3G0130,18.069662,-15.930966
2908,213,13-Nouakchott,Toujounine,Toujounine,18.06929,-15.926570000000002,Prive,Urbain,0.0,lycee de toujounine 1,13301001.0,32.0,7.0,800.0,51.0,0.0,1.0,10.0,0.16,3G,MC3G0175,18.06974,-15.927999999999999
2909,199,13-Nouakchott,Toujounine,Toujounine,18.07285,-15.90787,Prive,Urbain,0.0,LYCEE TOUJOUNINE 2,13301001.0,13.0,7.0,325.0,31.0,1.0,1.0,8.0,0.23,3G,MC3G0223,18.07083333,-15.9073
2910,10,13-Nouakchott,Toujounine,Toujounine,18.06564,-15.92089,public,Urbain,0.0,MAOULOUD AHMED (GARCON ),13301001.0,18.0,6.0,586.0,19.0,1.0,0.0,8.0,0.54,3G,MR3G0135,18.069861,-15.918354
2911,30,13-Nouakchott,Toujounine,Toujounine,18.06581,-15.904320000000002,public,Urbain,0.0,MASS AB,13301001.0,17.0,6.0,601.0,18.0,0.0,0.0,0.0,0.46,3G,MA3G0024,18.0693,-15.9067
2912,14,13-Nouakchott,Toujounine,Toujounine,18.064787,-15.904809,prive,Urbain,0.0,MEDAMES ADDOUD,13301001.0,5.0,6.0,77.0,6.0,0.0,0.0,2.0,0.54,3G,MA3G0024,18.0693,-15.9067
2913,68,13-Nouakchott,Toujounine,Toujounine,18.064664999999998,-15.890622,public,Urbain,0.0,MOHAMED O/ BOUKSA,13301001.0,6.0,6.0,364.0,7.0,0.0,0.0,8.0,0.14,3G,MR3G0138,18.065236,-15.891754
2914,38,13-Nouakchott,Toujounine,Toujounine,18.04482,-15.944920000000002,public,Urbain,0.0,MOHAMED VALL O/ ABBENI,13301001.0,8.0,6.0,267.0,9.0,0.0,1.0,2.0,0.2,3G,MC3G0201,18.04622222,-15.94608333
2915,40,13-Nouakchott,Toujounine,Toujounine,18.07328,-15.913070000000001,public,Urbain,0.0,NAIB,13301001.0,11.0,6.0,372.0,12.0,1.0,0.0,2.0,0.14,3G,MR3G0137,18.073248,-15.911732999999998
2916,17,13-Nouakchott,Toujounine,Toujounine,18.0704,-15.92264,prive,Urbain,0.0,NDEC SAAD,13301001.0,5.0,6.0,135.0,6.0,1.0,1.0,0.0,0.24,3G,MC3G0205,18.07238,-15.9217
2917,193,13-Nouakchott,Toujounine,Toujounine,18.0704,-15.92264,Prive,Urbain,0.0,N'DEC SAAD,13301001.0,23.0,1.0,575.0,2.0,1.0,1.0,0.0,0.24,3G,MC3G0205,18.07238,-15.9217
2918,15,13-Nouakchott,Toujounine,Toujounine,18.03885,-15.948429999999998,public,Urbain,0.0,O/ T'LAMID (FILLES),13301001.0,10.0,6.0,376.0,11.0,0.0,0.0,0.0,0.06,3G,MC3G0202,18.0386,-15.947920000000002
2919,191,13-Nouakchott,Toujounine,Toujounine,18.07206,-15.920320000000002,Prive,Urbain,0.0,OUGHOUL WAHAD,13301001.0,2.0,7.0,50.0,16.0,1.0,1.0,2.0,0.15,3G,MC3G0205,18.07238,-15.9217
2920,11,13-Nouakchott,Toujounine,Toujounine,18.06576,-15.92024,public,Urbain,0.0,OULD AMAR TALEB (FILLE),13301001.0,17.0,6.0,628.0,18.0,0.0,1.0,2.0,0.5,3G,MR3G0135,18.069861,-15.918354
2921,67,13-Nouakchott,Toujounine,Toujounine,18.064664999999998,-15.890622,public,Urbain,0.0,OULD HADJ HAMAHOULAH,13301001.0,7.0,6.0,178.0,8.0,0.0,0.0,2.0,0.14,3G,MR3G0138,18.065236,-15.891754
2922,25,13-Nouakchott,Toujounine,Toujounine,18.03898,-15.948520000000002,public,Urbain,0.0,OULD HAMADI,13301001.0,9.0,6.0,307.0,10.0,0.0,0.0,12.0,0.08,3G,MC3G0202,18.0386,-15.947920000000002
2923,35,13-Nouakchott,Toujounine,Toujounine,18.04225,-15.94475,public,Urbain,0.0,OULD M 'HIM,13301001.0,20.0,6.0,741.0,21.0,0.0,0.0,8.0,0.09,3G,MR3G0133,18.042733,-15.945437
2924,16,13-Nouakchott,Toujounine,Toujounine,18.04322,-15.94338,prive,Urbain,0.0,OUSMANE OULD BACAR,13301001.0,4.0,5.0,77.0,5.0,1.0,0.0,8.0,0.2,3G,MC3G0179,18.042327800000002,-15.941722199999997
2925,54,13-Nouakchott,Toujounine,Toujounine,18.06664,-15.929039999999999,public,Urbain,0.0,SALAHADINE,13301001.0,26.0,6.0,683.0,27.0,1.0,0.0,3.0,0.18,3G,MC3G0176,18.06608333,-15.9306
2926,59,13-Nouakchott,Toujounine,Toujounine,18.057389999999998,-15.94135,public,Urbain,0.0,SALAM,13301001.0,12.0,6.0,432.0,13.0,0.0,0.0,2.0,0.45,3G,MC3G0200,18.05384,-15.93929
2927,53,13-Nouakchott,Toujounine,Toujounine,18.06168,-15.929529999999998,public,Urbain,0.0,SIDI OULD MOULAYE ZEINE,13301001.0,13.0,6.0,434.0,14.0,0.0,0.0,2.0,0.22,3G,MA3G0158,18.05989,-15.92874
2928,202,13-Nouakchott,Toujounine,Toujounine,18.071379999999998,-15.90904,Prive,Urbain,623.0,TAGHADOUM HEDEL,13301001.0,3.0,5.0,75.0,10.0,1.0,1.0,2.0,0.19,3G,MC3G0223,18.07083333,-15.9073
2929,45,13-Nouakchott,Toujounine,Toujounine,18.0692,-15.910229999999999,prive,Urbain,0.0,TAGHADOUM HEDEL,13301001.0,11.0,6.0,192.0,12.0,1.0,1.0,2.0,0.36,3G,MC3G0223,18.07083333,-15.9073
2930,37,13-Nouakchott,Toujounine,Toujounine,18.05742,-15.93629,prive,Urbain,0.0,TAGHUIM,13301001.0,4.0,5.0,136.0,5.0,1.0,1.0,1.0,0.5,3G,MA3G0001,18.0535,-15.9386
2931,48,13-Nouakchott,Toujounine,Toujounine,18.07551,-15.93344,prive,Urbain,0.0,TAHA,13301001.0,7.0,6.0,90.0,8.0,1.0,1.0,1.0,0.27,3G,MC3G0180,18.07436667,-15.93570278
2932,27,13-Nouakchott,Toujounine,Toujounine,18.035320000000002,-15.94796,prive,Urbain,0.0,TALIA,13301001.0,4.0,5.0,43.0,5.0,0.0,0.0,2.0,0.36,3G,MC3G0202,18.0386,-15.947920000000002
2933,8,13-Nouakchott,Toujounine,Toujounine,18.06032,-15.897689999999999,prive,Urbain,0.0,TARBIA EL HOURA,13301001.0,5.0,6.0,116.0,6.0,1.0,0.0,3.0,0.73,3G,MA3G0148,18.064519,-15.89233
2934,23,13-Nouakchott,Toujounine,Toujounine,18.07038,-15.920829999999999,prive,Urbain,0.0,TARCH,13301001.0,11.0,6.0,352.0,12.0,1.0,1.0,12.0,0.24,3G,MC3G0205,18.07238,-15.9217
2935,32,13-Nouakchott,Toujounine,Toujounine,18.06201,-15.898660000000001,public,Urbain,0.0,TAREGH IBN ZEYAD,13301001.0,14.0,6.0,526.0,15.0,0.0,0.0,8.0,0.73,3G,MA3G0148,18.064519,-15.89233
2936,208,13-Nouakchott,Toujounine,Toujounine,18.07405,-15.921439999999999,Prive,Urbain,130955.0,TOUJOUNINE 4 COLLEGE,13301001.0,12.0,7.0,300.0,24.0,1.0,0.0,4.0,0.19,3G,MC3G0205,18.07238,-15.9217
2937,211,13-Nouakchott,Toujounine,Toujounine,18.05484,-15.937510000000001,Prive,Urbain,0.0,VIKR WEL ISTINABATT,13301001.0,13.0,4.0,325.0,8.0,1.0,1.0,3.0,0.19,3G,MA3G0001,18.0535,-15.9386
2938,205,13-Nouakchott,Toujounine,Toujounine,18.07151,-15.9187,Prive,Urbain,0.0,VOURGHANE,13301001.0,2.0,4.0,50.0,9.0,0.0,0.0,2.0,0.19,3G,MR3G0135,18.069861,-15.918354
